{
"type": "FeatureCollection",
"name": "people_1822_geocoded",
"crs": { "type": "name", "properties": { "name": "urn:ogc:def:crs:OGC:1.3:CRS84" } },
"features": [
{ "type": "Feature", "properties": { "surname": "Anderson", "given": "Daniel", "occupation": "boot'black", "street_raw": "Mechanic's. k. s!de", "cross_street": "High, o t", "bearing": "s", "side": "", "street_matched": "MECHANIC", "confidence": "block_face" }, "geometry": { "type": "Point", "coordinates": [ -76.607937547907753, 39.294504502130593 ] } },
{ "type": "Feature", "properties": { "surname": "Baker", "given": "Adum", "occupation": "woodsawyer", "street_raw": "Conway", "cross_street": "Charles", "bearing": "w", "side": "s", "street_matched": "CONWAY", "confidence": "block_face" }, "geometry": { "type": "Point", "coordinates": [ -76.615004196025936, 39.284107638878886 ] } },
{ "type": "Feature", "properties": { "surname": "Giles", "given": "Phoebe", "occupation": "laundress, Happy alley, E side S of Bank street, / ]> j Giles, Grace, laundress", "street_raw": "Conway", "cross_street": "Howard", "bearing": "w", "side": "s", "street_matched": "CONWAY", "confidence": "block_face" }, "geometry": { "type": "Point", "coordinates": [ -76.61912112920443, 39.283915942501586 ] } },
{ "type": "Feature", "properties": { "surname": "Morehorn", "given": "Peter", "occupation": "carter", "street_raw": "Mulberry", "cross_street": "Pine", "bearing": "e", "side": "n", "street_matched": "MULBERRY", "confidence": "block_face" }, "geometry": { "type": "Point", "coordinates": [ -76.626535618361231, 39.293683003811765 ] } },
{ "type": "Feature", "properties": { "surname": "Pennerton", "given": "Violet laundress", "occupation": "", "street_raw": "Fountain st-", "cross_street": "\" Castle alley", "bearing": "e", "side": "n", "street_matched": "FOUNTAIN", "confidence": "block_face" }, "geometry": { "type": "Point", "coordinates": [ -76.587427326130623, 39.284441793630656 ] } },
{ "type": "Feature", "properties": { "surname": "Powell", "given": "\" Sampson", "occupation": "", "street_raw": "whitewashes Conway", "cross_street": "Charles", "bearing": "w", "side": "s", "street_matched": "CONWAY", "confidence": "block_face" }, "geometry": { "type": "Point", "coordinates": [ -76.615004196025936, 39.284107638878886 ] } },
{ "type": "Feature", "properties": { "surname": "Robertson", "given": "Edward", "occupation": "laborer", "street_raw": "Calvert", "cross_street": "Franklin", "bearing": "s", "side": "w", "street_matched": "CALVERT", "confidence": "block_face" }, "geometry": { "type": "Point", "coordinates": [ -76.612756068892892, 39.294696055921619 ] } },
{ "type": "Feature", "properties": { "surname": "Stewart", "given": "Alexander", "occupation": "Morris i\\W side SW of Ross ■j Stewart, James, laborer, of Contwago iStewart, Susan, \"laundress, Hanover W side, S of Camden ^Stewart, Henry, laborer, Bottle alley S side E of Cove st. -j Stewart, Edward C laboier, Pearl E side S of Saratoga •{■Stewart, John, carpenter", "street_raw": "Howard", "cross_street": "Conway", "bearing": "n", "side": "w", "street_matched": "HOWARD", "confidence": "block_face" }, "geometry": { "type": "Point", "coordinates": [ -76.619226374322849, 39.28428901705697 ] } }
]
}
