{
"type": "FeatureCollection",
"name": "people_1819_geocoded",
"crs": { "type": "name", "properties": { "name": "urn:ogc:def:crs:OGC:1.3:CRS84" } },
"features": [
{ "type": "Feature", "properties": { "surname": "Allen", "given": "Caesar", "occupation": "labr", "street_raw": "Strawberry al", "cross_street": "Gough st", "bearing": "n", "side": "", "street_matched": "DALLAS", "confidence": "block_face" }, "geometry": { "type": "Point", "coordinates": [ -76.596190616011341, 39.287932356931343 ] } },
{ "type": "Feature", "properties": { "surname": "Bailey", "given": "Isaac", "occupation": "carpenter", "street_raw": "Bottle al", "cross_street": "Eutaw", "bearing": "w", "side": "", "street_matched": "DOVER", "confidence": "block_face" }, "geometry": { "type": "Point", "coordinates": [ -76.621249207210411, 39.285875477149787 ] } },
{ "type": "Feature", "properties": { "surname": "Bailey", "given": "Ann", "occupation": "laundress", "street_raw": "Brandy al", "cross_street": "Howard", "bearing": "", "side": "", "street_matched": "PERRY", "confidence": "near" }, "geometry": { "type": "Point", "coordinates": [ -76.61917436079456, 39.284761792719223 ] } },
{ "type": "Feature", "properties": { "surname": "Baily", "given": "Perry", "occupation": "laborer", "street_raw": "Hill", "cross_street": "Goodman", "bearing": "", "side": "", "street_matched": "HILL", "confidence": "near" }, "geometry": { "type": "Point", "coordinates": [ -76.614658628164818, 39.281009042734439 ] } },
{ "type": "Feature", "properties": { "surname": "Balfaur", "given": "James", "occupation": "barber", "street_raw": "Paca", "cross_street": "Fayette", "bearing": "", "side": "", "street_matched": "PACA", "confidence": "near" }, "geometry": { "type": "Point", "coordinates": [ -76.622359852428886, 39.290342316764878 ] } },
{ "type": "Feature", "properties": { "surname": "Barnett", "given": "Jno", "occupation": "mariner", "street_raw": "Strawberry al", "cross_street": "Gough", "bearing": "n", "side": "", "street_matched": "DALLAS", "confidence": "block_face" }, "geometry": { "type": "Point", "coordinates": [ -76.596190616011341, 39.287932356931343 ] } },
{ "type": "Feature", "properties": { "surname": "Blake", "given": "Isaac", "occupation": "rope maker", "street_raw": "Happy al", "cross_street": "Gough", "bearing": "", "side": "", "street_matched": "DURHAM", "confidence": "near" }, "geometry": { "type": "Point", "coordinates": [ -76.59084722054547, 39.287738819322783 ] } },
{ "type": "Feature", "properties": { "surname": "Boston", "given": "Jesse", "occupation": "cord wainer", "street_raw": "German", "cross_street": "Market", "bearing": "", "side": "", "street_matched": "PRATT", "confidence": "near" }, "geometry": { "type": "Point", "coordinates": [ -76.606541213496513, 39.286793233650307 ] } },
{ "type": "Feature", "properties": { "surname": "Brightman", "given": "Rebecca", "occupation": "laundress", "street_raw": "Montgomery", "cross_street": "Goodman", "bearing": "", "side": "", "street_matched": "MONTGOMERY", "confidence": "near" }, "geometry": { "type": "Point", "coordinates": [ -76.614582624506369, 39.279861599247575 ] } },
{ "type": "Feature", "properties": { "surname": "Butler", "given": "Mary", "occupation": "laundress", "street_raw": "Pearl", "cross_street": "Mulberry", "bearing": "s", "side": "", "street_matched": "PEARL", "confidence": "block_face" }, "geometry": { "type": "Point", "coordinates": [ -76.624735634867008, 39.293522448012929 ] } },
{ "type": "Feature", "properties": { "surname": "Carr", "given": "James", "occupation": "laborer", "street_raw": "Strawberry al", "cross_street": "Gough st", "bearing": "", "side": "", "street_matched": "DALLAS", "confidence": "near" }, "geometry": { "type": "Point", "coordinates": [ -76.596164302074541, 39.287497190897682 ] } },
{ "type": "Feature", "properties": { "surname": "Carshon", "given": "Elijah", "occupation": "brick maker", "street_raw": "Montgomery", "cross_street": "Goodman", "bearing": "", "side": "", "street_matched": "MONTGOMERY", "confidence": "near" }, "geometry": { "type": "Point", "coordinates": [ -76.614582624506369, 39.279861599247575 ] } },
{ "type": "Feature", "properties": { "surname": "Clark", "given": "Martha", "occupation": "laundress", "street_raw": "Ross", "cross_street": "Eutaw", "bearing": "", "side": "", "street_matched": "DRUID HILL", "confidence": "near" }, "geometry": { "type": "Point", "coordinates": [ -76.621364884545727, 39.296621655594912 ] } },
{ "type": "Feature", "properties": { "surname": "Clements", "given": "Peter", "occupation": "laborer", "street_raw": "Brandy al", "cross_street": "Howard st", "bearing": "", "side": "", "street_matched": "PERRY", "confidence": "near" }, "geometry": { "type": "Point", "coordinates": [ -76.61917436079456, 39.284761792719223 ] } },
{ "type": "Feature", "properties": { "surname": "Cockson", "given": "D", "occupation": "laborer", "street_raw": "Strawberry al", "cross_street": "Gough", "bearing": "", "side": "", "street_matched": "DALLAS", "confidence": "near" }, "geometry": { "type": "Point", "coordinates": [ -76.596164302074541, 39.287497190897682 ] } },
{ "type": "Feature", "properties": { "surname": "Connor", "given": "Sarah", "occupation": "laundress", "street_raw": "Goodman", "cross_street": "York", "bearing": "", "side": "", "street_matched": "CHARLES", "confidence": "near" }, "geometry": { "type": "Point", "coordinates": [ -76.614681311711976, 39.281351490627429 ] } },
{ "type": "Feature", "properties": { "surname": "Cooley", "given": "Lucinda", "occupation": "laundress", "street_raw": "Strawberry al", "cross_street": "Bank", "bearing": "", "side": "", "street_matched": "DALLAS", "confidence": "near" }, "geometry": { "type": "Point", "coordinates": [ -76.596103117265542, 39.286485405415569 ] } },
{ "type": "Feature", "properties": { "surname": "Crump", "given": "Daniel", "occupation": "gardner", "street_raw": "Pearl", "cross_street": "Mulberry", "bearing": "s", "side": "", "street_matched": "PEARL", "confidence": "block_face" }, "geometry": { "type": "Point", "coordinates": [ -76.624735634867008, 39.293522448012929 ] } },
{ "type": "Feature", "properties": { "surname": "Dannel", "given": "Mary", "occupation": "laundress", "street_raw": "Pearl", "cross_street": "Mulberry", "bearing": "s", "side": "", "street_matched": "PEARL", "confidence": "block_face" }, "geometry": { "type": "Point", "coordinates": [ -76.624735634867008, 39.293522448012929 ] } },
{ "type": "Feature", "properties": { "surname": "Davis", "given": "James", "occupation": "laborer", "street_raw": "Strawberry al", "cross_street": "Gough st", "bearing": "", "side": "", "street_matched": "DALLAS", "confidence": "near" }, "geometry": { "type": "Point", "coordinates": [ -76.596164302074541, 39.287497190897682 ] } },
{ "type": "Feature", "properties": { "surname": "Demby", "given": "Richard", "occupation": "laborer", "street_raw": "Strawberry al", "cross_street": "Gough st", "bearing": "", "side": "", "street_matched": "DALLAS", "confidence": "near" }, "geometry": { "type": "Point", "coordinates": [ -76.596164302074541, 39.287497190897682 ] } },
{ "type": "Feature", "properties": { "surname": "Dorsey", "given": "Daniel", "occupation": "laborer", "street_raw": "Apple al", "cross_street": "Fleet st", "bearing": "", "side": "", "street_matched": "BETHEL", "confidence": "near" }, "geometry": { "type": "Point", "coordinates": [ -76.594391267470314, 39.28451439458771 ] } },
{ "type": "Feature", "properties": { "surname": "Dunn", "given": "Benjamin", "occupation": "laborer", "street_raw": "Strawberry alley", "cross_street": "German st", "bearing": "", "side": "", "street_matched": "DALLAS", "confidence": "near" }, "geometry": { "type": "Point", "coordinates": [ -76.596263214767617, 39.289132904411822 ] } },
{ "type": "Feature", "properties": { "surname": "Edwards", "given": "Charles", "occupation": "oyster house", "street_raw": "Conway", "cross_street": "Hanover", "bearing": "w", "side": "", "street_matched": "CONWAY", "confidence": "block_face" }, "geometry": { "type": "Point", "coordinates": [ -76.616670618871964, 39.284093213056913 ] } },
{ "type": "Feature", "properties": { "surname": "Erforth", "given": "Henry", "occupation": "laborer", "street_raw": "Green", "cross_street": "German", "bearing": "", "side": "", "street_matched": "EXETER", "confidence": "near" }, "geometry": { "type": "Point", "coordinates": [ -76.601534260923444, 39.287923804875305 ] } },
{ "type": "Feature", "properties": { "surname": "Garrett", "given": "Rebecca", "occupation": "laundress", "street_raw": "Bond", "cross_street": "Fleet", "bearing": "", "side": "", "street_matched": "BOND", "confidence": "near" }, "geometry": { "type": "Point", "coordinates": [ -76.595256788052893, 39.284469795433765 ] } },
{ "type": "Feature", "properties": { "surname": "Glenn", "given": "James", "occupation": "caulker", "street_raw": "Happy alley", "cross_street": "Gough st", "bearing": "", "side": "", "street_matched": "DURHAM", "confidence": "near" }, "geometry": { "type": "Point", "coordinates": [ -76.59084722054547, 39.287738819322783 ] } },
{ "type": "Feature", "properties": { "surname": "Gray", "given": "Thomas", "occupation": "laborer", "street_raw": "Apple al", "cross_street": "German st", "bearing": "", "side": "", "street_matched": "BETHEL", "confidence": "near" }, "geometry": { "type": "Point", "coordinates": [ -76.594732231630857, 39.289197263396787 ] } },
{ "type": "Feature", "properties": { "surname": "Gray", "given": "David", "occupation": "laborer", "street_raw": "Brandy al", "cross_street": "Howard st", "bearing": "", "side": "", "street_matched": "PERRY", "confidence": "near" }, "geometry": { "type": "Point", "coordinates": [ -76.61917436079456, 39.284761792719223 ] } },
{ "type": "Feature", "properties": { "surname": "Green", "given": "Rachel", "occupation": "cook shop", "street_raw": "Bridge", "cross_street": "Union", "bearing": "", "side": "", "street_matched": "ENSOR", "confidence": "near" }, "geometry": { "type": "Point", "coordinates": [ -76.60587202382203, 39.295028433895368 ] } },
{ "type": "Feature", "properties": { "surname": "Hall", "given": "D.C", "occupation": "bootblack", "street_raw": "Salisbury", "cross_street": "Exeter", "bearing": "", "side": "", "street_matched": "SALISBURY", "confidence": "near" }, "geometry": { "type": "Point", "coordinates": [ -76.602593889571764, 39.289582533445284 ] } },
{ "type": "Feature", "properties": { "surname": "Handy", "given": "Mary", "occupation": "laundress", "street_raw": "Fountain st", "cross_street": "Castle alley", "bearing": "", "side": "", "street_matched": "FOUNTAIN", "confidence": "near" }, "geometry": { "type": "Point", "coordinates": [ -76.587748224064171, 39.284367111060909 ] } },
{ "type": "Feature", "properties": { "surname": "Harroll", "given": "Sarah", "occupation": "boarding house", "street_raw": "Apple al", "cross_street": "Shakespeare st", "bearing": "", "side": "", "street_matched": "BETHEL", "confidence": "near" }, "geometry": { "type": "Point", "coordinates": [ -76.594196940098456, 39.282025616845907 ] } },
{ "type": "Feature", "properties": { "surname": "Harris", "given": "Thomas", "occupation": "caulker", "street_raw": "Apple al", "cross_street": "German st", "bearing": "n", "side": "", "street_matched": "BETHEL", "confidence": "block_face" }, "geometry": { "type": "Point", "coordinates": [ -76.594761935177488, 39.289647187361226 ] } },
{ "type": "Feature", "properties": { "surname": "Heath", "given": "William", "occupation": "porter", "street_raw": "Montgomery", "cross_street": "Goodman", "bearing": "", "side": "", "street_matched": "MONTGOMERY", "confidence": "near" }, "geometry": { "type": "Point", "coordinates": [ -76.614582624506369, 39.279861599247575 ] } },
{ "type": "Feature", "properties": { "surname": "Hebrews", "given": "Stephen", "occupation": "dyer", "street_raw": "Lexington", "cross_street": "Howard", "bearing": "e", "side": "", "street_matched": "LEXINGTON", "confidence": "block_face" }, "geometry": { "type": "Point", "coordinates": [ -76.618973922902796, 39.291543786579773 ] } },
{ "type": "Feature", "properties": { "surname": "Hedges", "given": "Hanson", "occupation": "boot black", "street_raw": "of Baltimore", "cross_street": "Green", "bearing": "", "side": "", "street_matched": "BALTIMORE", "confidence": "corner" }, "geometry": { "type": "Point", "coordinates": [ -76.603134600023409, 39.290431604093925 ] } },
{ "type": "Feature", "properties": { "surname": "Hill", "given": "William", "occupation": "cordwainer", "street_raw": "Apple alley", "cross_street": "Fleet", "bearing": "", "side": "", "street_matched": "BETHEL", "confidence": "near" }, "geometry": { "type": "Point", "coordinates": [ -76.594391267470314, 39.28451439458771 ] } },
{ "type": "Feature", "properties": { "surname": "Hinks", "given": "Thomas", "occupation": "carter", "street_raw": "Eden", "cross_street": "Gough", "bearing": "", "side": "", "street_matched": "EDEN", "confidence": "near" }, "geometry": { "type": "Point", "coordinates": [ -76.598421707522292, 39.287396366160394 ] } },
{ "type": "Feature", "properties": { "surname": "Hogan", "given": "Matilda", "occupation": "laundress", "street_raw": "Strawberry al", "cross_street": "German st", "bearing": "s", "side": "", "street_matched": "DALLAS", "confidence": "block_face" }, "geometry": { "type": "Point", "coordinates": [ -76.596249963807907, 39.288913785004979 ] } },
{ "type": "Feature", "properties": { "surname": "Holsinger", "given": "Jane", "occupation": "laundress", "street_raw": "Strawberry al", "cross_street": "Bank", "bearing": "n", "side": "", "street_matched": "DALLAS", "confidence": "block_face" }, "geometry": { "type": "Point", "coordinates": [ -76.596115177148107, 39.286684836632013 ] } },
{ "type": "Feature", "properties": { "surname": "Hughes", "given": "Letitia", "occupation": "laundress", "street_raw": "Strawberry al", "cross_street": "German st", "bearing": "", "side": "", "street_matched": "DALLAS", "confidence": "near" }, "geometry": { "type": "Point", "coordinates": [ -76.596263214767617, 39.289132904411822 ] } },
{ "type": "Feature", "properties": { "surname": "Hyland", "given": "Caleb", "occupation": "laborer", "street_raw": "Fountain st", "cross_street": "Castle al", "bearing": "", "side": "", "street_matched": "FOUNTAIN", "confidence": "near" }, "geometry": { "type": "Point", "coordinates": [ -76.587748224064171, 39.284367111060909 ] } },
{ "type": "Feature", "properties": { "surname": "Jackson", "given": "Job", "occupation": "mariner", "street_raw": "Strawberry al", "cross_street": "Gough", "bearing": "", "side": "", "street_matched": "DALLAS", "confidence": "near" }, "geometry": { "type": "Point", "coordinates": [ -76.596164302074541, 39.287497190897682 ] } },
{ "type": "Feature", "properties": { "surname": "Jennings", "given": "Nero", "occupation": "mariner", "street_raw": "Happy al", "cross_street": "Bank", "bearing": "", "side": "", "street_matched": "DURHAM", "confidence": "near" }, "geometry": { "type": "Point", "coordinates": [ -76.590782857995222, 39.286722563743126 ] } },
{ "type": "Feature", "properties": { "surname": "Johnson", "given": "Frances", "occupation": "laundress", "street_raw": "n. Calvert", "cross_street": "Centre", "bearing": "", "side": "", "street_matched": "CALVERT", "confidence": "near" }, "geometry": { "type": "Point", "coordinates": [ -76.612800167278664, 39.296417269243769 ] } },
{ "type": "Feature", "properties": { "surname": "Jones", "given": "Richard", "occupation": "laborer", "street_raw": "Washington", "cross_street": "Fleet", "bearing": "s", "side": "", "street_matched": "WASHINGTON", "confidence": "block_face" }, "geometry": { "type": "Point", "coordinates": [ -76.588686397110237, 39.284586793441363 ] } },
{ "type": "Feature", "properties": { "surname": "Jones", "given": "Sarah", "occupation": "laundress", "street_raw": "n. Calvert", "cross_street": "Centre", "bearing": "", "side": "", "street_matched": "CALVERT", "confidence": "near" }, "geometry": { "type": "Point", "coordinates": [ -76.612800167278664, 39.296417269243769 ] } },
{ "type": "Feature", "properties": { "surname": "Jones", "given": "Thomas", "occupation": "laborer", "street_raw": "Strawberry al", "cross_street": "German st", "bearing": "", "side": "", "street_matched": "DALLAS", "confidence": "near" }, "geometry": { "type": "Point", "coordinates": [ -76.596263214767617, 39.289132904411822 ] } },
{ "type": "Feature", "properties": { "surname": "Jones", "given": "George", "occupation": "laborer", "street_raw": "Strawberry alley", "cross_street": "Gough st", "bearing": "n", "side": "", "street_matched": "DALLAS", "confidence": "block_face" }, "geometry": { "type": "Point", "coordinates": [ -76.596190616011341, 39.287932356931343 ] } },
{ "type": "Feature", "properties": { "surname": "Jones", "given": "James", "occupation": "barber", "street_raw": "n. Eutaw", "cross_street": "Franklin", "bearing": "s", "side": "", "street_matched": "EUTAW", "confidence": "block_face" }, "geometry": { "type": "Point", "coordinates": [ -76.621222905441655, 39.294360800480206 ] } },
{ "type": "Feature", "properties": { "surname": "Karson", "given": "Samuel", "occupation": "laborer", "street_raw": "Union lane", "cross_street": "Fayette st", "bearing": "", "side": "", "street_matched": "COLVIN", "confidence": "near" }, "geometry": { "type": "Point", "coordinates": [ -76.603027264811956, 39.291601363237859 ] } },
{ "type": "Feature", "properties": { "surname": "Keller", "given": "George", "occupation": "boot black", "street_raw": "Mulberry", "cross_street": "Pearl", "bearing": "", "side": "", "street_matched": "MULBERRY", "confidence": "near" }, "geometry": { "type": "Point", "coordinates": [ -76.624745327353878, 39.29369710232131 ] } },
{ "type": "Feature", "properties": { "surname": "LaBark", "given": "Augustus", "occupation": "stage driver", "street_raw": "Biddle", "cross_street": "Pennsylvania avenue", "bearing": "", "side": "", "street_matched": "BIDDLE", "confidence": "near" }, "geometry": { "type": "Point", "coordinates": [ -76.626272435172183, 39.296684774067884 ] } },
{ "type": "Feature", "properties": { "surname": "Lecompt", "given": "Bristor", "occupation": "laborer", "street_raw": "Happy al", "cross_street": "Fleet st", "bearing": "", "side": "", "street_matched": "DURHAM", "confidence": "near" }, "geometry": { "type": "Point", "coordinates": [ -76.590630684401404, 39.284678201361245 ] } },
{ "type": "Feature", "properties": { "surname": "Locks", "given": "Jacob", "occupation": "laborer", "street_raw": "Strawberry alley", "cross_street": "Gough st", "bearing": "", "side": "", "street_matched": "DALLAS", "confidence": "near" }, "geometry": { "type": "Point", "coordinates": [ -76.596164302074541, 39.287497190897682 ] } },
{ "type": "Feature", "properties": { "surname": "Lucas", "given": "Joshua", "occupation": "laborer", "street_raw": "Pine", "cross_street": "Franklin", "bearing": "s", "side": "", "street_matched": "PINE", "confidence": "block_face" }, "geometry": { "type": "Point", "coordinates": [ -76.627234565747713, 39.294412878386488 ] } },
{ "type": "Feature", "properties": { "surname": "McDonald", "given": "John", "occupation": "laborer", "street_raw": "Biddle", "cross_street": "Ross", "bearing": "", "side": "", "street_matched": "BIDDLE", "confidence": "near" }, "geometry": { "type": "Point", "coordinates": [ -76.624170161990563, 39.298445052606027 ] } },
{ "type": "Feature", "properties": { "surname": "Matthews", "given": "Rachael", "occupation": "laundress", "street_raw": "Saratoga", "cross_street": "Pearl", "bearing": "", "side": "", "street_matched": "SARATOGA", "confidence": "near" }, "geometry": { "type": "Point", "coordinates": [ -76.624695002965012, 39.292790261231595 ] } },
{ "type": "Feature", "properties": { "surname": "Moore", "given": "William", "occupation": "", "street_raw": "n. Calvert", "cross_street": "Centre", "bearing": "", "side": "", "street_matched": "CALVERT", "confidence": "near" }, "geometry": { "type": "Point", "coordinates": [ -76.612800167278664, 39.296417269243769 ] } },
{ "type": "Feature", "properties": { "surname": "Murray", "given": "Alexander", "occupation": "waiter", "street_raw": "Salisbury", "cross_street": "Exeter", "bearing": "", "side": "", "street_matched": "SALISBURY", "confidence": "near" }, "geometry": { "type": "Point", "coordinates": [ -76.602593889571764, 39.289582533445284 ] } },
{ "type": "Feature", "properties": { "surname": "Myers", "given": "Edward", "occupation": "carter", "street_raw": "Bond", "cross_street": "Gough N", "bearing": "", "side": "", "street_matched": "BOND", "confidence": "near" }, "geometry": { "type": "Point", "coordinates": [ -76.595473266470563, 39.28752805498339 ] } },
{ "type": "Feature", "properties": { "surname": "Nettles", "given": "John", "occupation": "brick maker", "street_raw": "Hill", "cross_street": "Sharp", "bearing": "", "side": "", "street_matched": "HILL", "confidence": "near" }, "geometry": { "type": "Point", "coordinates": [ -76.617515642871879, 39.280923535799914 ] } },
{ "type": "Feature", "properties": { "surname": "Norris", "given": "Richard", "occupation": "shop keeper", "street_raw": "s. Howard", "cross_street": "Liberty", "bearing": "", "side": "", "street_matched": "HOWARD", "confidence": "near" }, "geometry": { "type": "Point", "coordinates": [ -76.619293904355686, 39.286696312220968 ] } },
{ "type": "Feature", "properties": { "surname": "Norris", "given": "Richard", "occupation": "waiter", "street_raw": "Pine", "cross_street": "Franklin", "bearing": "", "side": "", "street_matched": "PINE", "confidence": "near" }, "geometry": { "type": "Point", "coordinates": [ -76.627251276983145, 39.294617911181533 ] } },
{ "type": "Feature", "properties": { "surname": "Parker", "given": "William", "occupation": "laborer", "street_raw": "Pearl", "cross_street": "Mulberry", "bearing": "", "side": "", "street_matched": "PEARL", "confidence": "near" }, "geometry": { "type": "Point", "coordinates": [ -76.624745327353878, 39.29369710232131 ] } },
{ "type": "Feature", "properties": { "surname": "Parrott", "given": "John", "occupation": "laborer", "street_raw": "Bond", "cross_street": "Gough", "bearing": "", "side": "", "street_matched": "BOND", "confidence": "near" }, "geometry": { "type": "Point", "coordinates": [ -76.595473266470563, 39.28752805498339 ] } },
{ "type": "Feature", "properties": { "surname": "Patterson", "given": "Joshua", "occupation": "lab.", "street_raw": "Strawberry alley", "cross_street": "Bank st", "bearing": "", "side": "", "street_matched": "DALLAS", "confidence": "near" }, "geometry": { "type": "Point", "coordinates": [ -76.596103117265542, 39.286485405415569 ] } },
{ "type": "Feature", "properties": { "surname": "Peck", "given": "Francis", "occupation": "carter", "street_raw": "Strawberry al", "cross_street": "German st", "bearing": "", "side": "", "street_matched": "DALLAS", "confidence": "near" }, "geometry": { "type": "Point", "coordinates": [ -76.596263214767617, 39.289132904411822 ] } },
{ "type": "Feature", "properties": { "surname": "Prout", "given": "Robert", "occupation": "cordwainer", "street_raw": "Camden", "cross_street": "Eutaw", "bearing": "", "side": "", "street_matched": "CAMDEN", "confidence": "near" }, "geometry": { "type": "Point", "coordinates": [ -76.620648417174621, 39.285212783159842 ] } },
{ "type": "Feature", "properties": { "surname": "Prout", "given": "Edward", "occupation": "blacksmith", "street_raw": "Apple alley", "cross_street": "Lancaster Q", "bearing": "", "side": "", "street_matched": "BETHEL", "confidence": "near" }, "geometry": { "type": "Point", "coordinates": [ -76.594241720869945, 39.282524521299663 ] } },
{ "type": "Feature", "properties": { "surname": "Robet", "given": "John", "occupation": "barber", "street_raw": "Bond", "cross_street": "Fleet", "bearing": "", "side": "", "street_matched": "BOND", "confidence": "near" }, "geometry": { "type": "Point", "coordinates": [ -76.595256788052893, 39.284469795433765 ] } },
{ "type": "Feature", "properties": { "surname": "Sampson", "given": "Leah", "occupation": "laundress", "street_raw": "Baltimore", "cross_street": "Pearl", "bearing": "w", "side": "", "street_matched": "BALTIMORE", "confidence": "block_face" }, "geometry": { "type": "Point", "coordinates": [ -76.624753014316823, 39.289138669657362 ] } },
{ "type": "Feature", "properties": { "surname": "Scott", "given": "James", "occupation": "cordwainer", "street_raw": "Baltimore", "cross_street": "Pearl", "bearing": "", "side": "", "street_matched": "BALTIMORE", "confidence": "near" }, "geometry": { "type": "Point", "coordinates": [ -76.624492993558945, 39.289150020925227 ] } },
{ "type": "Feature", "properties": { "surname": "Sharp", "given": "Robert", "occupation": "labourer", "street_raw": "Hill", "cross_street": "Goodman", "bearing": "", "side": "", "street_matched": "HILL", "confidence": "near" }, "geometry": { "type": "Point", "coordinates": [ -76.614658628164818, 39.281009042734439 ] } },
{ "type": "Feature", "properties": { "surname": "Shorter", "given": "Sarah", "occupation": "laundress", "street_raw": "Gough", "cross_street": "Happy al", "bearing": "", "side": "", "street_matched": "GOUGH", "confidence": "near" }, "geometry": { "type": "Point", "coordinates": [ -76.59084722054547, 39.287738819322783 ] } },
{ "type": "Feature", "properties": { "surname": "Smith", "given": "Samuel", "occupation": "laborer", "street_raw": "Pearl", "cross_street": "Lexington", "bearing": "", "side": "", "street_matched": "PEARL", "confidence": "near" }, "geometry": { "type": "Point", "coordinates": [ -76.624614256478424, 39.291335182773807 ] } },
{ "type": "Feature", "properties": { "surname": "Smith", "given": "Thomas", "occupation": "laborer", "street_raw": "Brandy alley", "cross_street": "Howard st", "bearing": "", "side": "", "street_matched": "PERRY", "confidence": "near" }, "geometry": { "type": "Point", "coordinates": [ -76.61917436079456, 39.284761792719223 ] } },
{ "type": "Feature", "properties": { "surname": "Taylor", "given": "Vincent", "occupation": "laborer", "street_raw": "Strawberry alley", "cross_street": "German st", "bearing": "", "side": "", "street_matched": "DALLAS", "confidence": "near" }, "geometry": { "type": "Point", "coordinates": [ -76.596263214767617, 39.289132904411822 ] } },
{ "type": "Feature", "properties": { "surname": "Thomas", "given": "Thomas", "occupation": "laborer", "street_raw": "Strawberry al", "cross_street": "German st", "bearing": "", "side": "", "street_matched": "DALLAS", "confidence": "near" }, "geometry": { "type": "Point", "coordinates": [ -76.596263214767617, 39.289132904411822 ] } },
{ "type": "Feature", "properties": { "surname": "Thomas", "given": "Isaac", "occupation": "laborer", "street_raw": "Strawberry al", "cross_street": "German st", "bearing": "", "side": "", "street_matched": "DALLAS", "confidence": "near" }, "geometry": { "type": "Point", "coordinates": [ -76.596263214767617, 39.289132904411822 ] } },
{ "type": "Feature", "properties": { "surname": "Wales", "given": "Perry", "occupation": "laborer", "street_raw": "Bridge", "cross_street": "Forrest", "bearing": "n", "side": "", "street_matched": "ENSOR", "confidence": "block_face" }, "geometry": { "type": "Point", "coordinates": [ -76.604830640853066, 39.296729826215888 ] } },
{ "type": "Feature", "properties": { "surname": "Walsh", "given": "Thomas", "occupation": "carter", "street_raw": "Saratoga", "cross_street": "Pearl", "bearing": "", "side": "", "street_matched": "SARATOGA", "confidence": "near" }, "geometry": { "type": "Point", "coordinates": [ -76.624695002965012, 39.292790261231595 ] } },
{ "type": "Feature", "properties": { "surname": "Waters", "given": "Neis", "occupation": "cooper", "street_raw": "Howard", "cross_street": "Conway", "bearing": "", "side": "", "street_matched": "HOWARD", "confidence": "near" }, "geometry": { "type": "Point", "coordinates": [ -76.61912598230596, 39.283978882355328 ] } },
{ "type": "Feature", "properties": { "surname": "Watts", "given": "Jeremiah", "occupation": "laborer", "street_raw": "Pine", "cross_street": "Franklin", "bearing": "s", "side": "", "street_matched": "PINE", "confidence": "block_face" }, "geometry": { "type": "Point", "coordinates": [ -76.627234565747713, 39.294412878386488 ] } },
{ "type": "Feature", "properties": { "surname": "Weeks", "given": "Gabriel", "occupation": "waiter", "street_raw": "Goodman", "cross_street": "Hill", "bearing": "", "side": "", "street_matched": "CHARLES", "confidence": "near" }, "geometry": { "type": "Point", "coordinates": [ -76.614658628164818, 39.281009042734439 ] } },
{ "type": "Feature", "properties": { "surname": "Wells", "given": "Nathaniel", "occupation": "carter", "street_raw": "Brandy alley", "cross_street": "Howard st", "bearing": "", "side": "", "street_matched": "PERRY", "confidence": "near" }, "geometry": { "type": "Point", "coordinates": [ -76.61917436079456, 39.284761792719223 ] } },
{ "type": "Feature", "properties": { "surname": "West", "given": "Susannah", "occupation": "laundress", "street_raw": "Apple al", "cross_street": "Fleet st", "bearing": "", "side": "", "street_matched": "BETHEL", "confidence": "near" }, "geometry": { "type": "Point", "coordinates": [ -76.594391267470314, 39.28451439458771 ] } },
{ "type": "Feature", "properties": { "surname": "White", "given": "Benjamin", "occupation": "laborer", "street_raw": "Bond", "cross_street": "Gough", "bearing": "", "side": "", "street_matched": "BOND", "confidence": "near" }, "geometry": { "type": "Point", "coordinates": [ -76.595473266470563, 39.28752805498339 ] } },
{ "type": "Feature", "properties": { "surname": "Williamson", "given": "Charles", "occupation": "drayman", "street_raw": "Bottle alley", "cross_street": "Eutaw st", "bearing": "", "side": "", "street_matched": "DOVER", "confidence": "near" }, "geometry": { "type": "Point", "coordinates": [ -76.620691321477466, 39.285895972358446 ] } },
{ "type": "Feature", "properties": { "surname": "Wilson", "given": "Sophia", "occupation": "laundress", "street_raw": "Brandy alley", "cross_street": "Howard st", "bearing": "", "side": "", "street_matched": "PERRY", "confidence": "near" }, "geometry": { "type": "Point", "coordinates": [ -76.61917436079456, 39.284761792719223 ] } },
{ "type": "Feature", "properties": { "surname": "Wright", "given": "Edward", "occupation": "blacksmith", "street_raw": "Brandy alley", "cross_street": "Howard st", "bearing": "", "side": "", "street_matched": "PERRY", "confidence": "near" }, "geometry": { "type": "Point", "coordinates": [ -76.61917436079456, 39.284761792719223 ] } }
]
}
