{"type":"FeatureCollection","crs":{"type":"name","properties":{"name":"EPSG:4326"}},"features":[{"type":"Feature","id":1,"geometry":{"type":"Polygon","coordinates":[[[-76.570634992325,39.2620605790796],[-76.5725732069322,39.2619952657285],[-76.5725743247791,39.2620228566921],[-76.5730850123999,39.2746308145689],[-76.576883882208,39.2754697051127],[-76.5795336922065,39.2761460134731],[-76.5818480199849,39.2771829476407],[-76.5821211387747,39.279137921144],[-76.5871173705039,39.2820918671607],[-76.5874507666405,39.2918837677611],[-76.581583755965,39.2920862653518],[-76.5764263915514,39.2922640252054],[-76.5753618331607,39.2923006892329],[-76.5728018258477,39.292388816386],[-76.5719415149776,39.2924184195071],[-76.5709033835945,39.2682998084228],[-76.570634992325,39.2620605790796]]]},"properties":{"OBJECTID":1,"Ward_Number":"Ward01","TOTPOP":31339,"MALE":15799,"FEMALE":15540,"WHITE":31218,"BLACK":116,"NATWH":26217,"NATPAR":13815,"MIXED":12402,"FBWHITE":5001,"UNDER5":3097,"AGE_5TO14":7253,"AGE_15TO24":6230,"AGE_25TO34":4777,"AGE_35to44":4236,"AGE_45TO64":4461,"AGE_65PLUS":1243,"AGE_21OVUK":17159}},{"type":"Feature","id":2,"geometry":{"type":"Polygon","coordinates":[[[-76.5874507666405,39.2918837677611],[-76.5871173705039,39.2820918671607],[-76.5881425056449,39.2819939155409],[-76.5879696459469,39.2794143710327],[-76.5887571925309,39.2787804016994],[-76.5925584751227,39.2797077755485],[-76.594541067532,39.2792165096299],[-76.5955545113961,39.2814229121443],[-76.5958842676873,39.2839824997134],[-76.59576234388,39.2855272078998],[-76.5937353470511,39.285611159969],[-76.5938719768594,39.2916771945797],[-76.5874507666405,39.2918837677611]]]},"properties":{"OBJECTID":2,"Ward_Number":"Ward02","TOTPOP":17344,"MALE":9086,"FEMALE":8258,"WHITE":17082,"BLACK":229,"NATWH":12967,"NATPAR":4810,"MIXED":8157,"FBWHITE":4115,"UNDER5":1626,"AGE_5TO14":4012,"AGE_15TO24":3546,"AGE_25TO34":2513,"AGE_35to44":2326,"AGE_45TO64":2549,"AGE_65PLUS":755,"AGE_21OVUK":9497}},{"type":"Feature","id":3,"geometry":{"type":"Polygon","coordinates":[[[-76.5938719768594,39.2916771945797],[-76.5937353470511,39.285611159969],[-76.59576234388,39.2855272078998],[-76.5958842676873,39.2839824997134],[-76.5955545113961,39.2814229121443],[-76.594541067532,39.2792165096299],[-76.5952838092364,39.2788040138938],[-76.5961927639175,39.2783225071074],[-76.598173199487,39.2778772944805],[-76.6012517831731,39.2791433045119],[-76.6039302548552,39.2809885130764],[-76.6040175252741,39.2815925304949],[-76.6043678724071,39.2839049290916],[-76.6044711554159,39.2845866005141],[-76.6045413287659,39.2848814359794],[-76.6047724337907,39.2858524204485],[-76.6051421985654,39.2871349330518],[-76.6054561157971,39.2879596130208],[-76.6056919499909,39.2884693700039],[-76.6059699607336,39.2884063068918],[-76.6064559885868,39.2896630754319],[-76.6059439159258,39.2896986276242],[-76.6058475463789,39.2897158124243],[-76.6014248950027,39.2905043710207],[-76.6009080990433,39.2905965032744],[-76.5992032811494,39.2911027301475],[-76.5980673346853,39.2912734494826],[-76.5974433238097,39.2915673388924],[-76.5938719768594,39.2916771945797]]]},"properties":{"OBJECTID":3,"Ward_Number":"Ward03","TOTPOP":13148,"MALE":7132,"FEMALE":6016,"WHITE":10495,"BLACK":2637,"NATWH":6645,"NATPAR":1632,"MIXED":5013,"FBWHITE":3850,"UNDER5":1173,"AGE_5TO14":2754,"AGE_15TO24":2510,"AGE_25TO34":1848,"AGE_35to44":1947,"AGE_45TO64":2277,"AGE_65PLUS":616,"AGE_21OVUK":7645}},{"type":"Feature","id":5,"geometry":{"type":"Polygon","coordinates":[[[-76.6064527161993,39.2896667148392],[-76.6065173270792,39.2896622284473],[-76.6061196340236,39.2901044808441],[-76.6067990576992,39.2910953811881],[-76.6073306948899,39.2916639560915],[-76.6077531020923,39.2921605750012],[-76.6083069750785,39.2925897617467],[-76.6089275629065,39.2927643734598],[-76.609443576076,39.2931236202124],[-76.6101117340217,39.2937907763757],[-76.610486922772,39.2943351597469],[-76.6104755638421,39.2947523381446],[-76.6104755262857,39.2947537343634],[-76.610176023493,39.2954130529863],[-76.6100973404562,39.2963724553873],[-76.6104433731623,39.2976501585347],[-76.610382553663,39.2976529520859],[-76.6066287114263,39.2978253260928],[-76.6035743396634,39.2980014667977],[-76.6025989849664,39.2980398179594],[-76.6000814183903,39.2981387697552],[-76.5993064948102,39.2981692167418],[-76.5978847833549,39.2982650524244],[-76.5978845418043,39.2982617759828],[-76.5977033376065,39.2958037652629],[-76.5976276566018,39.2928950136683],[-76.5975046642337,39.2915664966218],[-76.5981286748342,39.2912726068885],[-76.5992646211155,39.291101886958],[-76.6009694385166,39.2905956591958],[-76.6014248950027,39.2905043710207],[-76.6032059846655,39.2901473621345],[-76.6051930050677,39.2897906467082],[-76.6058475463789,39.2897158124243],[-76.6060052544646,39.2896977809087],[-76.6064527161993,39.2896667148392]]]},"properties":{"OBJECTID":5,"Ward_Number":"Ward05","TOTPOP":11990,"MALE":6398,"FEMALE":5592,"WHITE":5058,"BLACK":6913,"NATWH":3914,"NATPAR":853,"MIXED":2341,"FBWHITE":1864,"UNDER5":916,"AGE_5TO14":2121,"AGE_15TO24":2263,"AGE_25TO34":2051,"AGE_35to44":1973,"AGE_45TO64":2108,"AGE_65PLUS":484,"AGE_21OVUK":7622}},{"type":"Feature","id":7,"geometry":{"type":"Polygon","coordinates":[[[-76.5938719768594,39.2916771945797],[-76.5974433238097,39.2915673388924],[-76.5975663150226,39.2928958560272],[-76.5976419934918,39.2958046077131],[-76.5940078373544,39.2959893279485],[-76.5927378142985,39.2960627055173],[-76.5891086590181,39.2962723090053],[-76.5877539009743,39.2964241668352],[-76.5837626443275,39.2965554229412],[-76.5781906190331,39.296785914341],[-76.5745909618377,39.2969394255021],[-76.5727869090078,39.2969995237053],[-76.5727837372912,39.2959704014727],[-76.5727721481653,39.2941562188292],[-76.5728018258477,39.292388816386],[-76.5728020148988,39.292377582419],[-76.5738872180545,39.292335826652],[-76.5753618331607,39.2923006892329],[-76.5764263915514,39.2922640252054],[-76.581583755965,39.2920862653518],[-76.5835361595585,39.2920050501278],[-76.5848932465842,39.2919630201049],[-76.5874507666405,39.2918837677611],[-76.5897125019495,39.2918072002311],[-76.5904422983838,39.291784401291],[-76.5925989360036,39.291717000228],[-76.5938719768594,39.2916771945797]]]},"properties":{"OBJECTID":7,"Ward_Number":"Ward06","TOTPOP":28978,"MALE":14416,"FEMALE":14562,"WHITE":24570,"BLACK":4387,"NATWH":20059,"NATPAR":12224,"MIXED":7835,"FBWHITE":4511,"UNDER5":2481,"AGE_5TO14":5657,"AGE_15TO24":5793,"AGE_25TO34":4835,"AGE_35to44":4128,"AGE_45TO64":4736,"AGE_65PLUS":1286,"AGE_21OVUK":17396}},{"type":"Feature","id":8,"geometry":{"type":"Polygon","coordinates":[[[-76.5978705514162,39.3003362345167],[-76.5978970185641,39.3018073605],[-76.5979524552003,39.3030973780984],[-76.5964068235271,39.3031181647532],[-76.5912787445767,39.3033138210347],[-76.5889524612237,39.3032202221032],[-76.5881484673643,39.30299658916],[-76.5877480811839,39.302837224069],[-76.5868818882612,39.3025001225452],[-76.586151690608,39.3023356210726],[-76.5857841718903,39.3022789801264],[-76.5853563983026,39.3022130513873],[-76.5840095237319,39.3022313986923],[-76.5812863918073,39.3022992558776],[-76.579732331699,39.3023477521702],[-76.5784818278156,39.3024009708706],[-76.5772864579146,39.3024518301803],[-76.5751213522804,39.3025474341489],[-76.5727697938546,39.3026274458595],[-76.5727662944705,39.301411636449],[-76.5727746967191,39.2999409118534],[-76.5727864328379,39.2992526248369],[-76.5728005097466,39.2984271181266],[-76.5727869090078,39.2969995237053],[-76.5745909618377,39.2969394255021],[-76.5781906190331,39.296785914341],[-76.5837626443275,39.2965554229412],[-76.5877539009743,39.2964241668352],[-76.5891086590181,39.2962723090053],[-76.5927378142985,39.2960627055173],[-76.5940078373544,39.2959893279485],[-76.5976419934918,39.2958046077131],[-76.597823437098,39.2982658950138],[-76.5978705514162,39.3003362345167]]]},"properties":{"OBJECTID":8,"Ward_Number":"Ward07","TOTPOP":31292,"MALE":15298,"FEMALE":15994,"WHITE":23207,"BLACK":8258,"NATWH":19856,"NATPAR":13063,"MIXED":6793,"FBWHITE":3171,"UNDER5":2528,"AGE_5TO14":5797,"AGE_15TO24":6180,"AGE_25TO34":5548,"AGE_35to44":4785,"AGE_45TO64":5051,"AGE_65PLUS":1349,"AGE_21OVUK":19511}},{"type":"Feature","id":9,"geometry":{"type":"Polygon","coordinates":[[[-76.5731991784654,39.3381494376892],[-76.5731090733596,39.3367126228441],[-76.5730997805025,39.3354775993851],[-76.5730718735247,39.3329732224099],[-76.5731426020871,39.3319063293237],[-76.5731024701721,39.3309354959034],[-76.5730858690143,39.3301953457016],[-76.5730517948942,39.3286760908446],[-76.5732096159914,39.3267645687511],[-76.5731458410657,39.3239208323831],[-76.573129243606,39.3231806821934],[-76.572949956606,39.3218971917884],[-76.5728571928396,39.3206051099517],[-76.5728460278666,39.3178305007669],[-76.5728115433356,39.3169221535758],[-76.5728745994505,39.3143283044592],[-76.5728567690519,39.3123050107071],[-76.5728384450273,39.3094409571158],[-76.5727703115194,39.307117492143],[-76.5727606816077,39.3037782276088],[-76.5727697938546,39.3026274458595],[-76.5751213522804,39.3025474341489],[-76.5772864579146,39.3024518301803],[-76.5784818278156,39.3024009708706],[-76.579732331699,39.3023477521702],[-76.5812863918073,39.3022992558776],[-76.5840095237319,39.3022313986923],[-76.5853563983026,39.3022130513873],[-76.5857841718903,39.3022789801264],[-76.586151690608,39.3023356210726],[-76.5868818882612,39.3025001225452],[-76.5877480811839,39.302837224069],[-76.5881484673643,39.30299658916],[-76.5889524612237,39.3032202221032],[-76.5912787445767,39.3033138210347],[-76.5964068235271,39.3031181647532],[-76.5979524552003,39.3030973780984],[-76.5980459455809,39.3052727725532],[-76.5980635897644,39.3070564313608],[-76.5981467725837,39.3085327233013],[-76.5981695519431,39.3089369914032],[-76.5982317526177,39.3103108364188],[-76.5983026972245,39.3118776995963],[-76.5997461094823,39.311821402312],[-76.599687141581,39.312413228084],[-76.5992296830566,39.3132051934168],[-76.5984162411131,39.3139434163725],[-76.5956879247796,39.3164434391208],[-76.5947594294626,39.3172555631053],[-76.592389757169,39.3195476053047],[-76.5915365326858,39.3204066242182],[-76.5909376896268,39.3210863109963],[-76.5901964722883,39.3219275713138],[-76.5891401606308,39.3225566120501],[-76.588148924764,39.3229768744927],[-76.5877814831211,39.3234518825934],[-76.5847166063363,39.3270306805482],[-76.583265206431,39.3287184398889],[-76.5817700100494,39.3300032299396],[-76.579862820966,39.3314550172841],[-76.5784097662988,39.3323087422018],[-76.5767523775186,39.3336477269838],[-76.575691869449,39.3345243800165],[-76.5751161679986,39.3357011898402],[-76.574690941036,39.3368759585766],[-76.5738904737273,39.3378139968541],[-76.5731991784654,39.3381494376892]]]},"properties":{"OBJECTID":9,"Ward_Number":"Ward08","TOTPOP":42302,"MALE":20785,"FEMALE":21517,"WHITE":40493,"BLACK":1792,"NATWH":37659,"NATPAR":29134,"MIXED":8525,"FBWHITE":2834,"UNDER5":3621,"AGE_5TO14":7836,"AGE_15TO24":7219,"AGE_25TO34":7236,"AGE_35to44":6426,"AGE_45TO64":7634,"AGE_65PLUS":2290,"AGE_21OVUK":26631}},{"type":"Feature","id":10,"geometry":{"type":"Polygon","coordinates":[[[-76.5731991784654,39.3381494376892],[-76.5738904737273,39.3378139968541],[-76.574690941036,39.3368759585766],[-76.5751161679986,39.3357011898402],[-76.575691869449,39.3345243800165],[-76.5767523775186,39.3336477269838],[-76.5784097662988,39.3323087422018],[-76.579862820966,39.3314550172841],[-76.5817700100494,39.3300032299396],[-76.583265206431,39.3287184398889],[-76.5847166063363,39.3270306805482],[-76.5877814831211,39.3234518825934],[-76.588148924764,39.3229768744927],[-76.5891401606308,39.3225566120501],[-76.5901964722883,39.3219275713138],[-76.5909376896268,39.3210863109963],[-76.5915365326858,39.3204066242182],[-76.592389757169,39.3195476053047],[-76.5947594294626,39.3172555631053],[-76.5956879247796,39.3164434391208],[-76.5984162411131,39.3139434163725],[-76.5992296830566,39.3132051934168],[-76.599687141581,39.312413228084],[-76.5997461094823,39.311821402312],[-76.5983026972245,39.3118776995963],[-76.5982317526177,39.3103108364188],[-76.5981695519431,39.3089369914032],[-76.5981467725837,39.3085327233013],[-76.5980635897644,39.3070564313608],[-76.5980459455809,39.3052727725532],[-76.6049331918621,39.3049674568824],[-76.6081303385597,39.3047953545778],[-76.608287222398,39.3055345179122],[-76.6084448403964,39.3062771199195],[-76.6087495407,39.3081652229737],[-76.6090081213686,39.3097096806577],[-76.6091437298105,39.3114931463335],[-76.6092682345614,39.3147624896377],[-76.6092743524073,39.3162567405096],[-76.6092550379216,39.3194487136914],[-76.6092984963874,39.3205174559719],[-76.6093897074682,39.3225665869277],[-76.6094198060967,39.3234246061901],[-76.6094936120965,39.3255285016899],[-76.6094985424594,39.3284737973182],[-76.6095734493355,39.3308712988814],[-76.6095916789307,39.3344265587916],[-76.6095953397217,39.3351403193484],[-76.6096512577088,39.3379906835353],[-76.609688184824,39.340287901048],[-76.6075017409933,39.340285900845],[-76.6047497820877,39.3402843332305],[-76.6006486666163,39.3403408488147],[-76.5923871034786,39.3401743905565],[-76.5899331963707,39.3401630272008],[-76.5855781110909,39.3400157764437],[-76.5815803649857,39.3399957601048],[-76.5783040576716,39.3399956349164],[-76.5729562756721,39.3402198962448],[-76.5731991784654,39.3381494376892]]]},"properties":{"OBJECTID":10,"Ward_Number":"Ward09","TOTPOP":40471,"MALE":19301,"FEMALE":21170,"WHITE":39234,"BLACK":1220,"NATWH":37146,"NATPAR":29896,"MIXED":7250,"FBWHITE":2088,"UNDER5":3147,"AGE_5TO14":7009,"AGE_15TO24":6345,"AGE_25TO34":6897,"AGE_35to44":6578,"AGE_45TO64":8068,"AGE_65PLUS":2348,"AGE_21OVUK":26588}},{"type":"Feature","id":11,"geometry":{"type":"Polygon","coordinates":[[[-76.5980459455809,39.3052727725532],[-76.5979524552003,39.3030973780984],[-76.5978970185641,39.3018073605],[-76.5978705514162,39.3003362345167],[-76.597823437098,39.2982658950138],[-76.5978845418043,39.2982617759828],[-76.5992451486795,39.2981700600787],[-76.6000200723094,39.2981396134997],[-76.6025376390475,39.2980406630286],[-76.6035129938072,39.2980023123802],[-76.6065673658156,39.2978261732814],[-76.6103820278195,39.29765100773],[-76.610382553663,39.2976529520859],[-76.6105241047347,39.2981756074957],[-76.6107855669065,39.2994236610237],[-76.610818718895,39.301391508635],[-76.6112175091464,39.3023415079101],[-76.611552716281,39.3029627010354],[-76.6119164676878,39.3034563747411],[-76.6119074734023,39.3046241892765],[-76.6097678114714,39.3047429844612],[-76.6081303385597,39.3047953545778],[-76.6049331918621,39.3049674568824],[-76.5980459455809,39.3052727725532]]]},"properties":{"OBJECTID":11,"Ward_Number":"Ward10","TOTPOP":18346,"MALE":9965,"FEMALE":8381,"WHITE":11855,"BLACK":6476,"NATWH":10128,"NATPAR":6439,"MIXED":3689,"FBWHITE":1727,"UNDER5":1375,"AGE_5TO14":2894,"AGE_15TO24":3516,"AGE_25TO34":3462,"AGE_35to44":2675,"AGE_45TO64":3135,"AGE_65PLUS":1167,"AGE_21OVUK":12154}},{"type":"Feature","id":12,"geometry":{"type":"Polygon","coordinates":[[[-76.6119074734023,39.3046241892765],[-76.6119164676878,39.3034563747411],[-76.611552716281,39.3029627010354],[-76.6112175091464,39.3023415079101],[-76.610818718895,39.301391508635],[-76.6107855669065,39.2994236610237],[-76.6105241047347,39.2981756074957],[-76.610382553663,39.2976529520859],[-76.6103820278195,39.29765100773],[-76.6100359962178,39.2963733043775],[-76.6101146800941,39.2954139020008],[-76.610414183471,39.2947545835239],[-76.6104755638421,39.2947523381446],[-76.612564381986,39.2946759057048],[-76.6125987477145,39.2950763561665],[-76.6146178386234,39.295093660483],[-76.6188462115118,39.2949870587819],[-76.6214235679743,39.2948907203769],[-76.6214880946428,39.2963694033678],[-76.6245923884382,39.2985368938279],[-76.6257400086516,39.2993731454964],[-76.6271803837625,39.3005336101789],[-76.6281179580098,39.301344167787],[-76.6288031706336,39.3019386045846],[-76.629712951581,39.3027554514962],[-76.6287967594313,39.303469361425],[-76.6271361845461,39.3047848942421],[-76.6271687177002,39.3048119962677],[-76.6242689869324,39.306650749814],[-76.6243665638286,39.3067295005419],[-76.6220362862759,39.3084073005437],[-76.6208549947788,39.3092982827253],[-76.6201381398699,39.3097563976719],[-76.6197183962785,39.3090066956251],[-76.6191675633458,39.3083890838764],[-76.6179881665352,39.3081449604624],[-76.6170302552869,39.3073245725424],[-76.6152617802624,39.3062549014222],[-76.6145714556379,39.3063509557439],[-76.6138568220031,39.3062120707133],[-76.6129496470066,39.3060687645004],[-76.6124886074761,39.3058391014586],[-76.6119074734023,39.3046241892765]]]},"properties":{"OBJECTID":12,"Ward_Number":"Ward11","TOTPOP":16869,"MALE":7588,"FEMALE":9281,"WHITE":9808,"BLACK":7026,"NATWH":9032,"NATPAR":7859,"MIXED":1173,"FBWHITE":776,"UNDER5":721,"AGE_5TO14":1656,"AGE_15TO24":2699,"AGE_25TO34":3380,"AGE_35to44":2970,"AGE_45TO64":3858,"AGE_65PLUS":1271,"AGE_21OVUK":13212}},{"type":"Feature","id":13,"geometry":{"type":"MultiPolygon","coordinates":[[[[-76.6214235679743,39.2948907203769],[-76.6198804056311,39.2949609615742],[-76.6188462115118,39.2949870587819],[-76.6214235679743,39.2948907203769]]],[[[-76.629712951581,39.3027554514962],[-76.6288031706336,39.3019386045846],[-76.6281179580098,39.301344167787],[-76.6271803837625,39.3005336101789],[-76.6257400086516,39.2993731454964],[-76.6245923884382,39.2985368938279],[-76.6214880946428,39.2963694033678],[-76.6214235679743,39.2948907203769],[-76.6214161813956,39.2938915651697],[-76.6226926454904,39.2938505736278],[-76.6274148013643,39.2936988077428],[-76.6315824673808,39.2934903322905],[-76.6321156983051,39.2943565973574],[-76.6325854981562,39.2953891880865],[-76.6327769389554,39.2958099540319],[-76.6345670088705,39.299021796737],[-76.6336613393198,39.2997152696632],[-76.6319803531046,39.3010023501204],[-76.6309696705412,39.3017761649921],[-76.629712951581,39.3027554514962]]]]},"properties":{"OBJECTID":13,"Ward_Number":"Ward17","TOTPOP":16471,"MALE":8197,"FEMALE":8274,"WHITE":1893,"BLACK":14559,"NATWH":1460,"NATPAR":777,"MIXED":683,"FBWHITE":433,"UNDER5":1068,"AGE_5TO14":2326,"AGE_15TO24":2866,"AGE_25TO34":3415,"AGE_35to44":3011,"AGE_45TO64":3052,"AGE_65PLUS":594,"AGE_21OVUK":11689}},{"type":"Feature","id":14,"geometry":{"type":"Polygon","coordinates":[[[-76.6325854981562,39.2953891880865],[-76.6321156983051,39.2943565973574],[-76.6315824673808,39.2934903322905],[-76.630511144391,39.2914606572698],[-76.6292250965104,39.2891316112483],[-76.629195545936,39.2890780911256],[-76.627534684146,39.2860137931818],[-76.6291947674672,39.2859530413876],[-76.629933895041,39.2859259846666],[-76.6322334350679,39.2858090539774],[-76.6343612866137,39.2857297787123],[-76.6377348543575,39.285585399222],[-76.6377914315467,39.2863050555548],[-76.6379271376523,39.288686958348],[-76.6381674787646,39.2922249339682],[-76.6381747767179,39.2923323520359],[-76.6382909750394,39.2941568711527],[-76.6383414546954,39.2950738122834],[-76.6345477077723,39.2952524026201],[-76.6325854981562,39.2953891880865]]]},"properties":{"OBJECTID":14,"Ward_Number":"Ward18","TOTPOP":17032,"MALE":8532,"FEMALE":8500,"WHITE":7630,"BLACK":9384,"NATWH":6448,"NATPAR":4577,"MIXED":1871,"FBWHITE":1182,"UNDER5":1413,"AGE_5TO14":2781,"AGE_15TO24":2990,"AGE_25TO34":3322,"AGE_35to44":2711,"AGE_45TO64":3070,"AGE_65PLUS":685,"AGE_21OVUK":11234}},{"type":"Feature","id":15,"geometry":{"type":"Polygon","coordinates":[[[-76.6383414546954,39.2950738122834],[-76.6382909750394,39.2941568711527],[-76.6381747767179,39.2923323520359],[-76.6381674787646,39.2922249339682],[-76.6379271376523,39.288686958348],[-76.6377914315467,39.2863050555548],[-76.6377348543575,39.285585399222],[-76.6376184402582,39.2841045458804],[-76.6376174554827,39.2834481268058],[-76.6378646942473,39.2829996063949],[-76.6383575601561,39.2826477621187],[-76.6389409597376,39.2824949073603],[-76.6393523603333,39.2823333473716],[-76.6398306430806,39.2819705755399],[-76.6402639087119,39.2815194289134],[-76.6405912512969,39.2814369320497],[-76.6412165299709,39.2812389716742],[-76.6420091716968,39.2808851193563],[-76.6454251643584,39.2797028120105],[-76.6467234088396,39.2793181964039],[-76.6468202480383,39.2818241916414],[-76.6468740171835,39.2838470906647],[-76.646965656091,39.2858595821249],[-76.6470347199271,39.2882588531887],[-76.6451245198596,39.2883595758827],[-76.645319663709,39.2913422652835],[-76.645359258337,39.2919918540454],[-76.6454715255391,39.2938335841098],[-76.6455347648079,39.2948374291205],[-76.6427278704042,39.294926614318],[-76.6383414546954,39.2950738122834]]]},"properties":{"OBJECTID":15,"Ward_Number":"Ward19","TOTPOP":21373,"MALE":10186,"FEMALE":11187,"WHITE":14126,"BLACK":7237,"NATWH":12804,"NATPAR":9950,"MIXED":2854,"FBWHITE":1322,"UNDER5":1845,"AGE_5TO14":3791,"AGE_15TO24":3909,"AGE_25TO34":3565,"AGE_35to44":3127,"AGE_45TO64":3816,"AGE_65PLUS":1192,"AGE_21OVUK":13428}},{"type":"Feature","id":17,"geometry":{"type":"Polygon","coordinates":[[[-76.6125987477145,39.2950763561665],[-76.612564381986,39.2946759057048],[-76.6104755638421,39.2947523381446],[-76.6104755262857,39.2947537343634],[-76.610414183471,39.2947545835239],[-76.6104255803228,39.294336008906],[-76.6100503920362,39.2937916253274],[-76.6093822346524,39.2931244688002],[-76.6088662217807,39.2927652217694],[-76.6082456340863,39.2925906097262],[-76.6076917614578,39.2921614226813],[-76.6072693546759,39.2916648035402],[-76.6067377179652,39.2910962283466],[-76.6060582951335,39.290105327627],[-76.6064527161993,39.2896667148392],[-76.6064559885868,39.2896630754319],[-76.6059699607336,39.2884063068918],[-76.6056919499909,39.2884693700039],[-76.6054561157971,39.2879596130208],[-76.6051421985654,39.2871349330518],[-76.6047724337907,39.2858524204485],[-76.6045413287659,39.2848814359794],[-76.6044711554159,39.2845866005141],[-76.6043678724071,39.2839049290916],[-76.6042808801594,39.2834151793505],[-76.6040175252741,39.2815925304949],[-76.6074761518493,39.2828578996374],[-76.6102300565734,39.2841326725726],[-76.6117981160616,39.2848915515599],[-76.6128906820135,39.2862777804393],[-76.6164391822087,39.2865081930437],[-76.6183435208378,39.2864324247181],[-76.6209985043869,39.286326739228],[-76.6224380971057,39.2862694078937],[-76.627534684146,39.2860137931818],[-76.629195545936,39.2890780911256],[-76.6292250965104,39.2891316112483],[-76.630511144391,39.2914606572698],[-76.6315824673808,39.2934903322905],[-76.6274148013643,39.2936988077428],[-76.6226926454904,39.2938505736278],[-76.6214161813956,39.2938915651697],[-76.6214235679743,39.2948907203769],[-76.6198804056311,39.2949609615742],[-76.6188462115118,39.2949870587819],[-76.6146178386234,39.295093660483],[-76.6125987477145,39.2950763561665]]]},"properties":{"OBJECTID":17,"Ward_Number":"Ward04","TOTPOP":11168,"MALE":6584,"FEMALE":4584,"WHITE":6539,"BLACK":4489,"NATWH":5217,"NATPAR":3541,"MIXED":1730,"FBWHITE":1268,"UNDER5":634,"AGE_5TO14":1366,"AGE_15TO24":2186,"AGE_25TO34":2194,"AGE_35to44":2057,"AGE_45TO64":2193,"AGE_65PLUS":458,"AGE_21OVUK":8050}},{"type":"Feature","id":19,"geometry":{"type":"Polygon","coordinates":[[[-76.627534684146,39.2860137931818],[-76.6224380971057,39.2862694078937],[-76.6209985043869,39.286326739228],[-76.6183435208378,39.2864324247181],[-76.6164391822087,39.2865081930437],[-76.6128906820135,39.2862777804393],[-76.6131797154188,39.2854317702005],[-76.6131304191228,39.2845000733456],[-76.6130393084863,39.2823546923884],[-76.6078012262379,39.2814514471955],[-76.6060133451328,39.2801317756128],[-76.6055891452602,39.2793169596169],[-76.6085344770843,39.2791879853121],[-76.6094457054679,39.279123000579],[-76.6114048027954,39.2789832612727],[-76.6126068714832,39.2789391063845],[-76.6127000375938,39.2791440726332],[-76.6146126478306,39.2790196979425],[-76.6164628937651,39.2788993479621],[-76.6183304439914,39.2793271538523],[-76.6210820405495,39.2801142585866],[-76.6226606357649,39.2807131248226],[-76.6235357557249,39.280564964258],[-76.627534684146,39.2860137931818]]]},"properties":{"OBJECTID":19,"Ward_Number":"Ward22","TOTPOP":10847,"MALE":5719,"FEMALE":8128,"WHITE":5899,"BLACK":4940,"NATWH":4799,"NATPAR":3300,"MIXED":1499,"FBWHITE":1100,"UNDER5":853,"AGE_5TO14":1813,"AGE_15TO24":1937,"AGE_25TO34":1952,"AGE_35to44":1783,"AGE_45TO64":2035,"AGE_65PLUS":430,"AGE_21OVUK":7067}},{"type":"Feature","id":20,"geometry":{"type":"Polygon","coordinates":[[[-76.6210820405495,39.2801142585866],[-76.6183304439914,39.2793271538523],[-76.6164628937651,39.2788993479621],[-76.6146126478306,39.2790196979425],[-76.6127000375938,39.2791440726332],[-76.6126068714832,39.2789391063845],[-76.6126129057069,39.2787003675856],[-76.612566774952,39.2763735203171],[-76.612514672133,39.2744196049972],[-76.6122534104385,39.2728527356563],[-76.6122008721858,39.272711464081],[-76.6117267022735,39.271436423837],[-76.6119537873776,39.2705632940574],[-76.6122147521084,39.2688149363734],[-76.6121971088261,39.2680456943848],[-76.6120698821918,39.2660216684504],[-76.6118348905401,39.2628213489313],[-76.6116074815011,39.2599507017419],[-76.6114840925029,39.2576118047836],[-76.6150912641827,39.2590853250895],[-76.6201599285441,39.2613239324554],[-76.6216489575008,39.2619653622667],[-76.6225492397669,39.2640666666214],[-76.6225821047041,39.2665999361724],[-76.6226802380276,39.2689130402568],[-76.622718077202,39.2724899210041],[-76.6241769689448,39.2724836931122],[-76.6241748999365,39.272763256149],[-76.6240242693899,39.2736604234772],[-76.6236220652908,39.2746463454132],[-76.6230272231201,39.2759732670771],[-76.6219090374916,39.2783863536147],[-76.6210820405495,39.2801142585866]]]},"properties":{"OBJECTID":20,"Ward_Number":"Ward23","TOTPOP":13743,"MALE":6956,"FEMALE":6787,"WHITE":11100,"BLACK":2632,"NATWH":10419,"NATPAR":8346,"MIXED":2073,"FBWHITE":681,"UNDER5":1287,"AGE_5TO14":2671,"AGE_15TO24":2498,"AGE_25TO34":2240,"AGE_35to44":2000,"AGE_45TO64":2381,"AGE_65PLUS":654,"AGE_21OVUK":8341}},{"type":"Feature","id":21,"geometry":{"type":"Polygon","coordinates":[[[-76.6126068714832,39.2789391063845],[-76.6114048027954,39.2789832612727],[-76.6094457054679,39.279123000579],[-76.6085344770843,39.2791879853121],[-76.6055891452602,39.2793169596169],[-76.604269932365,39.2777187187934],[-76.602923232345,39.2756242864555],[-76.6019748153069,39.2750973603559],[-76.5999080654506,39.274538855409],[-76.5986005307181,39.2741577060095],[-76.5975479194224,39.2743599842412],[-76.5967876247593,39.2747711142483],[-76.5942930481134,39.2755141026359],[-76.59181768683,39.2759679809939],[-76.5892635845958,39.2753309177419],[-76.585943325678,39.2730662955339],[-76.583415964415,39.2712107763288],[-76.5814547464876,39.2698877268597],[-76.5818998926011,39.2686694773851],[-76.5803790043149,39.2683121556848],[-76.5808141690542,39.2668693643287],[-76.5785864482708,39.2654805749808],[-76.5779043831277,39.2639778712199],[-76.578424261693,39.2624502349862],[-76.5797864908608,39.2611804165129],[-76.5829710846333,39.2610531404929],[-76.5889293385825,39.2610608226424],[-76.5916770777993,39.2610232703623],[-76.5950620769485,39.2619211358601],[-76.6004390005023,39.2635740314041],[-76.6054177335039,39.2609235404201],[-76.6056019958195,39.2589623097675],[-76.6061841280946,39.2579211335054],[-76.6075073799863,39.2567268988427],[-76.6094394758471,39.256505452352],[-76.6108827064879,39.2555042605776],[-76.6114188897881,39.2553288420961],[-76.6114840925029,39.2576118047836],[-76.6116074815011,39.2599507017419],[-76.6118348905401,39.2628213489313],[-76.6120698821918,39.2660216684504],[-76.6121971088261,39.2680456943848],[-76.6122147521084,39.2688149363734],[-76.6119537873776,39.2705632940574],[-76.6117267022735,39.271436423837],[-76.6122008721858,39.272711464081],[-76.6122534104385,39.2728527356563],[-76.612514672133,39.2744196049972],[-76.612566774952,39.2763735203171],[-76.6126129057069,39.2787003675856],[-76.6126068714832,39.2789391063845]]]},"properties":{"OBJECTID":21,"Ward_Number":"Ward24","TOTPOP":21249,"MALE":11378,"FEMALE":9871,"WHITE":21154,"BLACK":28,"NATWH":18963,"NATPAR":14354,"MIXED":4609,"FBWHITE":2191,"UNDER5":2010,"AGE_5TO14":4429,"AGE_15TO24":4252,"AGE_25TO34":3492,"AGE_35to44":2824,"AGE_45TO64":3384,"AGE_65PLUS":853,"AGE_21OVUK":12308}},{"type":"Feature","id":22,"geometry":{"type":"Polygon","coordinates":[[[-76.6377348543575,39.285585399222],[-76.6343612866137,39.2857297787123],[-76.6322334350679,39.2858090539774],[-76.629933895041,39.2859259846666],[-76.6291947674672,39.2859530413876],[-76.627534684146,39.2860137931818],[-76.6235357557249,39.280564964258],[-76.6226606357649,39.2807131248226],[-76.6210820405495,39.2801142585866],[-76.6219090374916,39.2783863536147],[-76.6230272231201,39.2759732670771],[-76.6236220652908,39.2746463454132],[-76.6240242693899,39.2736604234772],[-76.6241748999365,39.272763256149],[-76.6241769689448,39.2724836931122],[-76.6241948485471,39.2700671260099],[-76.6242180061728,39.2690400890703],[-76.6242188520707,39.2690026032276],[-76.6277893866062,39.2691894232951],[-76.6302924000949,39.2693038836316],[-76.6316082884528,39.2693726503195],[-76.6307725848655,39.2683067532806],[-76.6289640695419,39.2680264683223],[-76.6274783825091,39.2675378965252],[-76.6279869677577,39.2661555047557],[-76.6281153509214,39.2646256217293],[-76.6290427309065,39.26364485494],[-76.6304994119624,39.262885877841],[-76.6306533768084,39.2622681601976],[-76.6301498123186,39.2615192832568],[-76.6311031062047,39.2606959956951],[-76.6315514949751,39.2602224471777],[-76.6316051774068,39.2597123328651],[-76.6334509467174,39.2585003807849],[-76.6354982257768,39.2599373207145],[-76.6357224710324,39.2603672151959],[-76.6388197926648,39.2608899266996],[-76.6417045344152,39.2614821772081],[-76.6432520973552,39.2598613939799],[-76.6445044271598,39.2602767485359],[-76.6464841885162,39.2606484878432],[-76.6479810741479,39.2605273645939],[-76.6494732616208,39.2605499675564],[-76.6501858046479,39.260517684313],[-76.6511208394495,39.2606417724478],[-76.6512748696399,39.2607240442602],[-76.6514833808391,39.2610981623021],[-76.6516527571348,39.2616281014876],[-76.6517415797353,39.2629798809366],[-76.6517396245776,39.2641111377188],[-76.6518044866222,39.2644429315322],[-76.652155634426,39.2648150231686],[-76.6529536069303,39.2653803955458],[-76.6535941847613,39.2659258184267],[-76.6539749186016,39.266341845349],[-76.6542700805339,39.2667590875609],[-76.6546315219622,39.2681735292888],[-76.6549768158767,39.2707194275145],[-76.655251340155,39.2732885109788],[-76.6552647560202,39.274463909166],[-76.6551300040961,39.2750029343791],[-76.65497868123,39.2756082370804],[-76.6545300156475,39.2762280570121],[-76.6540114787144,39.276795525656],[-76.6532690102397,39.2773261674402],[-76.6522848271112,39.2777935583313],[-76.6509988943359,39.2781985459286],[-76.6495658954211,39.2785522616772],[-76.6480140621291,39.2789609859661],[-76.6467234088396,39.2793181964039],[-76.6454251643584,39.2797028120105],[-76.6420091716968,39.2808851193563],[-76.6412165299709,39.2812389716742],[-76.6405912512969,39.2814369320497],[-76.6402639087119,39.2815194289134],[-76.6398306430806,39.2819705755399],[-76.6393523603333,39.2823333473716],[-76.6389409597376,39.2824949073603],[-76.6383575601561,39.2826477621187],[-76.6378646942473,39.2829996063949],[-76.6376174554827,39.2834481268058],[-76.6376184402582,39.2841045458804],[-76.6377348543575,39.285585399222]]]},"properties":{"OBJECTID":22,"Ward_Number":"Ward21","TOTPOP":17201,"MALE":8882,"FEMALE":8319,"WHITE":14420,"BLACK":2779,"NATWH":13296,"NATPAR":10574,"MIXED":2722,"FBWHITE":1124,"UNDER5":1569,"AGE_5TO14":3467,"AGE_15TO24":3287,"AGE_25TO34":2746,"AGE_35to44":2450,"AGE_45TO64":2896,"AGE_65PLUS":770,"AGE_21OVUK":10165}},{"type":"Feature","id":23,"geometry":{"type":"Polygon","coordinates":[[[-76.6497446734447,39.3721532613163],[-76.6380307204849,39.3721353295952],[-76.6356142325677,39.3721693463541],[-76.6320154127062,39.3721254913553],[-76.6262148652052,39.3721080829811],[-76.623844327276,39.3721008855359],[-76.62011234887,39.3721034283836],[-76.6185967315989,39.3720945049453],[-76.6163638518837,39.3720813237233],[-76.6120428007172,39.3721289312223],[-76.6100805728157,39.372106603063],[-76.6025732880195,39.3721250717713],[-76.6005761067822,39.3721080457666],[-76.5975410811588,39.3720821054966],[-76.586407644835,39.3720325520836],[-76.583263617384,39.3719882802741],[-76.5823582419263,39.3719755156454],[-76.5721453513041,39.3719828579746],[-76.5703148472682,39.3719845667212],[-76.5619041424492,39.3719920488197],[-76.5488888433279,39.3719239258777],[-76.5449904312591,39.3719572218574],[-76.5299876530689,39.3719645461616],[-76.5300369124573,39.3636978142547],[-76.5299590017801,39.358376427415],[-76.5300342785942,39.3565616530462],[-76.530038933442,39.3552984133804],[-76.5328341939753,39.3529002606934],[-76.534901550259,39.3511164835639],[-76.5372985009316,39.3490608109414],[-76.5397073206601,39.3469599534391],[-76.5413137185786,39.3455864995599],[-76.543233603712,39.3441599904442],[-76.5455487938006,39.3424906196257],[-76.5462488999091,39.3419857835659],[-76.5494921992213,39.3396944234039],[-76.5514128374365,39.3383166436925],[-76.5519908677913,39.3379111157166],[-76.552549055479,39.3375195012876],[-76.5553222600562,39.3355556660218],[-76.5591363000851,39.3329926440783],[-76.5622512356489,39.3307957805178],[-76.5639044585321,39.3294815221166],[-76.5654997060337,39.3281630361758],[-76.5677624775831,39.3262575114006],[-76.5698196029691,39.3245804079252],[-76.5716288282082,39.323067754962],[-76.572949956606,39.3218971917884],[-76.573129243606,39.3231806821934],[-76.5731458410657,39.3239208323831],[-76.5732096159914,39.3267645687511],[-76.5730517948942,39.3286760908446],[-76.5730858690143,39.3301953457016],[-76.5731024701721,39.3309354959034],[-76.5731426020871,39.3319063293237],[-76.5730718735247,39.3329732224099],[-76.5730997805025,39.3354775993851],[-76.5731090733596,39.3367126228441],[-76.5731991784654,39.3381494376892],[-76.5729562756721,39.3402198962448],[-76.5783040576716,39.3399956349164],[-76.5815803649857,39.3399957601048],[-76.5855781110909,39.3400157764437],[-76.5899331963707,39.3401630272008],[-76.5923871034786,39.3401743905565],[-76.6006486666163,39.3403408488147],[-76.6047497820877,39.3402843332305],[-76.6075017409933,39.340285900845],[-76.609688184824,39.340287901048],[-76.6162901766204,39.3402518672699],[-76.6226542853918,39.3402372867851],[-76.6259864258605,39.3402046415809],[-76.6260540426199,39.3402041917915],[-76.6296082164135,39.3401804859018],[-76.63442628426,39.3401659479767],[-76.6376033363919,39.340121256478],[-76.6388885597572,39.3401113285119],[-76.6389649683421,39.3401107374132],[-76.643238167309,39.3401255064932],[-76.6473173809956,39.3401128388556],[-76.6481647969428,39.3401133669654],[-76.6513776134119,39.3401153113797],[-76.6553984770971,39.3400881759499],[-76.6584159019769,39.3400783454944],[-76.6594228625089,39.3400944350288],[-76.6618929644327,39.3400693166168],[-76.6639978798922,39.3400798230554],[-76.6676319919725,39.3400785254687],[-76.6701289439663,39.340083299817],[-76.6710054666324,39.3401113129786],[-76.6716782239758,39.3403655700291],[-76.6739343769508,39.341095489172],[-76.6748739719683,39.3413687545013],[-76.6760289529542,39.3417068335817],[-76.6768708600723,39.3419588495739],[-76.6774977522167,39.3421611305858],[-76.6780611141769,39.3421454564347],[-76.6786890559109,39.3419854501883],[-76.679326711711,39.3418253012016],[-76.6800048548975,39.3417324881289],[-76.6811024197685,39.34170153345],[-76.6817266063585,39.3417906230611],[-76.6824168769358,39.3422032814904],[-76.6835259609288,39.3430363116639],[-76.6843437923221,39.343575910613],[-76.6850185436421,39.3440716230621],[-76.6868718953652,39.3453406397527],[-76.6879806210118,39.346160903719],[-76.6893177373762,39.347124889149],[-76.6897896978774,39.347468552694],[-76.6906242974002,39.3480231998619],[-76.6936604190762,39.350134798393],[-76.6949480774679,39.3510651035241],[-76.7004050034727,39.3548363045824],[-76.7059304022616,39.3587186726419],[-76.7102775319382,39.3617748546615],[-76.7109427920506,39.3623272368573],[-76.7109078028839,39.3668250961891],[-76.7108393621084,39.3714358782374],[-76.7108512981292,39.3721445045983],[-76.6907526386225,39.3721837903369],[-76.6819957898687,39.3721778552347],[-76.6780027447579,39.3721944939995],[-76.6701487879775,39.3721616117992],[-76.6652436726784,39.3721614605224],[-76.6582143189949,39.3721209134089],[-76.6527065145711,39.3721471901173],[-76.6497446734447,39.3721532613163]]]},"properties":{"OBJECTID":23,"Ward_Number":"Ward27","TOTPOP":77008,"MALE":36737,"FEMALE":40271,"WHITE":74679,"BLACK":2315,"NATWH":68901,"NATPAR":55085,"MIXED":13816,"FBWHITE":5778,"UNDER5":6093,"AGE_5TO14":13564,"AGE_15TO24":12466,"AGE_25TO34":13517,"AGE_35to44":12348,"AGE_45TO64":14681,"AGE_65PLUS":4225,"AGE_21OVUK":50144}},{"type":"Feature","id":27,"geometry":{"type":"Polygon","coordinates":[[[-76.6584159019769,39.3400783454944],[-76.6553984770971,39.3400881759499],[-76.6513776134119,39.3401153113797],[-76.6481647969428,39.3401133669654],[-76.6473173809956,39.3401128388556],[-76.643238167309,39.3401255064932],[-76.6389649683421,39.3401107374132],[-76.6388885597572,39.3401113285119],[-76.6376033363919,39.340121256478],[-76.63442628426,39.3401659479767],[-76.6296082164135,39.3401804859018],[-76.6260540426199,39.3402041917915],[-76.6259864258605,39.3402046415809],[-76.6260469104515,39.3393607669178],[-76.6258654336406,39.3389903826268],[-76.625250769384,39.3381636293457],[-76.6245250471247,39.3375174260087],[-76.6243685888762,39.3369826040817],[-76.6243114583437,39.3365158195906],[-76.6242264289244,39.3358210742599],[-76.6238939784764,39.334736784322],[-76.6235354978395,39.333772191951],[-76.6242619277195,39.3327924522972],[-76.624700661251,39.3318316437275],[-76.6254772087095,39.331358370161],[-76.6262160345465,39.3309154527279],[-76.6254746778098,39.328762868218],[-76.6252139568121,39.3276922929353],[-76.625261169205,39.3269380157913],[-76.6258688271696,39.3261759057517],[-76.6262666135177,39.3257231932066],[-76.6264218544823,39.3250978069187],[-76.6263575222717,39.3243196870494],[-76.6261890377309,39.3233752331354],[-76.6261015087137,39.3222618587445],[-76.6263134464481,39.3214199512785],[-76.6264962612459,39.3209859373733],[-76.6265186540976,39.3203835633562],[-76.6267511676121,39.3196395809595],[-76.6273991932241,39.3191896058211],[-76.6282452583635,39.3191400494249],[-76.6271095317966,39.3172380250031],[-76.6259008441085,39.3161575455688],[-76.6242764452267,39.3138724201908],[-76.623275053251,39.3127984647283],[-76.6232535620269,39.3127754144795],[-76.6214531393442,39.3117194795808],[-76.6206329487968,39.3111349211128],[-76.6206298690644,39.3111307895523],[-76.6206068827138,39.3110907986595],[-76.6236490520918,39.3109932592914],[-76.6243651428724,39.3109653594255],[-76.6268995954597,39.3108665757635],[-76.6339169996469,39.310576549656],[-76.6424333968657,39.3101517557195],[-76.6445873496515,39.3118289397429],[-76.6464178781122,39.3133245980247],[-76.6475519300263,39.3142511435752],[-76.6507559034069,39.3169615794092],[-76.6514781106777,39.3176546107074],[-76.6534042235366,39.31961789633],[-76.6545947850178,39.3209717714926],[-76.6556682838461,39.3225657022231],[-76.6564237392277,39.3236873498976],[-76.6568676645279,39.3242889480159],[-76.6577458147199,39.3250402200014],[-76.6565067686727,39.3267390225616],[-76.6549979041228,39.3289682987395],[-76.654207185543,39.3298191316862],[-76.6554418743189,39.3320870990789],[-76.6562378975762,39.3340036999243],[-76.6564944928,39.3351194903569],[-76.6566357853294,39.3362324875539],[-76.6566540046295,39.3370036642666],[-76.6568504574313,39.3374347989115],[-76.6574495009397,39.3378240349217],[-76.6582660123949,39.3385476711189],[-76.6581403193774,39.3391400937227],[-76.6581034562492,39.3395504444532],[-76.6584159019769,39.3400783454944]]]},"properties":{"OBJECTID":27,"Ward_Number":"Ward13","TOTPOP":38596,"MALE":18306,"FEMALE":20290,"WHITE":34526,"BLACK":4055,"NATWH":31189,"NATPAR":23197,"MIXED":7272,"FBWHITE":3337,"UNDER5":2995,"AGE_5TO14":6206,"AGE_15TO24":6699,"AGE_25TO34":6888,"AGE_35to44":5805,"AGE_45TO64":7626,"AGE_65PLUS":2242,"AGE_21OVUK":25612}},{"type":"Feature","id":28,"geometry":{"type":"Polygon","coordinates":[[[-76.6584159019769,39.3400783454944],[-76.6581034562492,39.3395504444532],[-76.6581403193774,39.3391400937227],[-76.6582660123949,39.3385476711189],[-76.6574495009397,39.3378240349217],[-76.6568504574313,39.3374347989115],[-76.6566540046295,39.3370036642666],[-76.6566357853294,39.3362324875539],[-76.6564944928,39.3351194903569],[-76.6562378975762,39.3340036999243],[-76.6554418743189,39.3320870990789],[-76.654207185543,39.3298191316862],[-76.6549979041228,39.3289682987395],[-76.6565067686727,39.3267390225616],[-76.6577458147199,39.3250402200014],[-76.6568676645279,39.3242889480159],[-76.6564237392277,39.3236873498976],[-76.6556682838461,39.3225657022231],[-76.6545947850178,39.3209717714926],[-76.6534042235366,39.31961789633],[-76.6514781106777,39.3176546107074],[-76.6507559034069,39.3169615794092],[-76.6475519300263,39.3142511435752],[-76.6464178781122,39.3133245980247],[-76.6445873496515,39.3118289397429],[-76.6424333968657,39.3101517557195],[-76.6401156437016,39.308107809919],[-76.6389719310268,39.3070646020411],[-76.6382179642616,39.3057154871963],[-76.636993561808,39.3034690877272],[-76.6388726520369,39.3033980202703],[-76.6431735848822,39.3032621285245],[-76.6443972298955,39.3032110054031],[-76.6460273389033,39.3031801783888],[-76.647687413678,39.3031487608503],[-76.6499876641906,39.3030611546206],[-76.651072679556,39.3034345418121],[-76.6550256913898,39.3043625013063],[-76.6576421925553,39.3051057639858],[-76.6584167588836,39.3055358865737],[-76.6590393205439,39.306197329867],[-76.6601605661766,39.3061648088122],[-76.6609294300317,39.3061498951982],[-76.6633868685266,39.3061021948277],[-76.6674298291277,39.3059451653119],[-76.6680182606308,39.3065398875594],[-76.668399986508,39.3069392729478],[-76.6689601003202,39.3072369490027],[-76.6698691139612,39.3072239037871],[-76.6721324888816,39.3071418160378],[-76.6729914920229,39.3070385789032],[-76.6735006297015,39.3065355089163],[-76.6738974716209,39.3063413661193],[-76.6744258850673,39.3062355478461],[-76.6764264981137,39.3051899022133],[-76.6800561361512,39.3062218640614],[-76.6814525320243,39.3067984242026],[-76.6838249755649,39.3064359034644],[-76.6871943243286,39.3058965686275],[-76.6874973343064,39.3125885642465],[-76.6874999880063,39.3126386316284],[-76.6876435593148,39.315347651899],[-76.6877832753752,39.3175587272939],[-76.6879091955192,39.3197493189216],[-76.6879811400092,39.3219096680297],[-76.6881025845946,39.3240350176717],[-76.6884249381886,39.3291300332628],[-76.6887673547912,39.3361700081517],[-76.6890317610333,39.3400374869579],[-76.6842116723862,39.340039773179],[-76.6788323498983,39.3400420874692],[-76.677815740257,39.3400380085878],[-76.6756745112203,39.3400876283815],[-76.6710054666324,39.3401113129786],[-76.6701289439663,39.340083299817],[-76.6676319919725,39.3400785254687],[-76.6639978798922,39.3400798230554],[-76.6618929644327,39.3400693166168],[-76.6594228625089,39.3400944350288],[-76.6584159019769,39.3400783454944]]]},"properties":{"OBJECTID":28,"Ward_Number":"Ward15","TOTPOP":70451,"MALE":33358,"FEMALE":37093,"WHITE":60626,"BLACK":9795,"NATWH":50581,"NATPAR":32500,"MIXED":18351,"FBWHITE":9775,"UNDER5":5188,"AGE_5TO14":11575,"AGE_15TO24":12331,"AGE_25TO34":12528,"AGE_35to44":11251,"AGE_45TO64":13729,"AGE_65PLUS":3637,"AGE_21OVUK":46461}},{"type":"Feature","id":29,"geometry":{"type":"Polygon","coordinates":[[[-76.6871943243286,39.3058965686275],[-76.6838249755649,39.3064359034644],[-76.6814525320243,39.3067984242026],[-76.6800561361512,39.3062218640614],[-76.6764264981137,39.3051899022133],[-76.6744258850673,39.3062355478461],[-76.6738974716209,39.3063413661193],[-76.6735006297015,39.3065355089163],[-76.6729914920229,39.3070385789032],[-76.6721324888816,39.3071418160378],[-76.6698691139612,39.3072239037871],[-76.6689601003202,39.3072369490027],[-76.668399986508,39.3069392729478],[-76.6680182606308,39.3065398875594],[-76.6674298291277,39.3059451653119],[-76.6633868685266,39.3061021948277],[-76.6609294300317,39.3061498951982],[-76.6601605661766,39.3061648088122],[-76.6590393205439,39.306197329867],[-76.6584167588836,39.3055358865737],[-76.6576421925553,39.3051057639858],[-76.6550256913898,39.3043625013063],[-76.651072679556,39.3034345418121],[-76.6499876641906,39.3030611546206],[-76.647687413678,39.3031487608503],[-76.6460273389033,39.3031801783888],[-76.6443972298955,39.3032110054031],[-76.6431735848822,39.3032621285245],[-76.6388726520369,39.3033980202703],[-76.636993561808,39.3034690877272],[-76.6354403147337,39.3005886101872],[-76.6345670088705,39.299021796737],[-76.6327769389554,39.2958099540319],[-76.6325854981562,39.2953891880865],[-76.6345477077723,39.2952524026201],[-76.6383414546954,39.2950738122834],[-76.6427278704042,39.294926614318],[-76.6455347648079,39.2948374291205],[-76.6506329001091,39.2947119921702],[-76.6554295608236,39.2945712319991],[-76.6593422431364,39.2944875380609],[-76.6598601417804,39.2945081026382],[-76.6619412250452,39.2944923344875],[-76.6635762531358,39.2943952086266],[-76.6641717958783,39.2944550836214],[-76.6696107420234,39.2942249492051],[-76.6696620592187,39.2942235351491],[-76.6721845510506,39.294153991801],[-76.6727548036602,39.2941401183144],[-76.6756001573076,39.2940708562521],[-76.6813692594767,39.2938516560216],[-76.686459029051,39.293652303892],[-76.6867099328014,39.2978680535775],[-76.687050308672,39.3040260754217],[-76.6871081737057,39.304777646264],[-76.6871943243286,39.3058965686275]]]},"properties":{"OBJECTID":29,"Ward_Number":"Ward16","TOTPOP":44301,"MALE":20873,"FEMALE":23428,"WHITE":26894,"BLACK":17387,"NATWH":25576,"NATPAR":21089,"MIXED":4487,"FBWHITE":1318,"UNDER5":3536,"AGE_5TO14":7240,"AGE_15TO24":7377,"AGE_25TO34":8525,"AGE_35to44":7506,"AGE_45TO64":7845,"AGE_65PLUS":2064,"AGE_21OVUK":29476}},{"type":"Feature","id":30,"geometry":{"type":"Polygon","coordinates":[[[-76.7109427920506,39.3623272368573],[-76.7102775319382,39.3617748546615],[-76.7004050034727,39.3548363045824],[-76.6949480774679,39.3510651035241],[-76.6936604190762,39.350134798393],[-76.6906242974002,39.3480231998619],[-76.6897896978774,39.347468552694],[-76.6893177373762,39.347124889149],[-76.6879806210118,39.346160903719],[-76.6868718953652,39.3453406397527],[-76.6850185436421,39.3440716230621],[-76.6843437923221,39.343575910613],[-76.6835259609288,39.3430363116639],[-76.6824168769358,39.3422032814904],[-76.6817266063585,39.3417906230611],[-76.6811024197685,39.34170153345],[-76.6800048548975,39.3417324881289],[-76.679326711711,39.3418253012016],[-76.6786890559109,39.3419854501883],[-76.6780611141769,39.3421454564347],[-76.6774977522167,39.3421611305858],[-76.6768708600723,39.3419588495739],[-76.6760289529542,39.3417068335817],[-76.6748739719683,39.3413687545013],[-76.6739343769508,39.341095489172],[-76.6716782239758,39.3403655700291],[-76.6710054666324,39.3401113129786],[-76.6756745112203,39.3400876283815],[-76.677815740257,39.3400380085878],[-76.6788323498983,39.3400420874692],[-76.6842116723862,39.340039773179],[-76.6890317610333,39.3400374869579],[-76.6887673547912,39.3361700081517],[-76.6884249381886,39.3291300332628],[-76.6881025845946,39.3240350176717],[-76.6879811400092,39.3219096680297],[-76.6879091955192,39.3197493189216],[-76.6877832753752,39.3175587272939],[-76.6876435593148,39.315347651899],[-76.6874999880063,39.3126386316284],[-76.6874973343064,39.3125885642465],[-76.6871943243286,39.3058965686275],[-76.6871081737057,39.304777646264],[-76.687050308672,39.3040260754217],[-76.6867099328014,39.2978680535775],[-76.686459029051,39.293652303892],[-76.6856045769391,39.2865540052306],[-76.6856229800069,39.2854185430344],[-76.6855710011504,39.2835239235662],[-76.6855528347823,39.28167949283],[-76.6869342971215,39.2816391998341],[-76.6889970451209,39.2814572379651],[-76.6928795094707,39.2812765482053],[-76.6934358628801,39.2812417012902],[-76.6969053579573,39.2810243255133],[-76.7010113240596,39.2808675806288],[-76.7041051706821,39.2807013223387],[-76.7056589871637,39.2805817666525],[-76.7063061141421,39.28030611055],[-76.7068246309224,39.2798629583117],[-76.7072515361331,39.2794937392125],[-76.7080530826949,39.2791674134015],[-76.709321459424,39.278834224753],[-76.7103114894881,39.278577705406],[-76.7110196443689,39.2782527329708],[-76.7113355785488,39.2784416628304],[-76.7112165080314,39.2836515801732],[-76.7112078091297,39.2866105016653],[-76.7111929030313,39.2916839654478],[-76.7111661289261,39.2925107240321],[-76.7110878025038,39.2996567958766],[-76.7110722569134,39.3035774020277],[-76.7110598489367,39.3047026500082],[-76.7110429076338,39.3083607132639],[-76.7109811867603,39.3159578800712],[-76.7110454151742,39.3203154513783],[-76.7110586223251,39.3272155737989],[-76.7110711013049,39.3311415648273],[-76.7110134135342,39.3362881442092],[-76.7110035343737,39.3413416780909],[-76.7109428351405,39.3492666914229],[-76.7109661547008,39.3524688050394],[-76.7109592650464,39.354631651011],[-76.7109547600867,39.3560461840093],[-76.7109231530083,39.3583462835008],[-76.7109427920506,39.3623272368573]]]},"properties":{"OBJECTID":30,"Ward_Number":"Ward28","TOTPOP":16775,"MALE":7852,"FEMALE":8923,"WHITE":16704,"BLACK":67,"NATWH":15787,"NATPAR":12802,"MIXED":2985,"FBWHITE":917,"UNDER5":1094,"AGE_5TO14":2636,"AGE_15TO24":2494,"AGE_25TO34":2749,"AGE_35to44":2879,"AGE_45TO64":3756,"AGE_65PLUS":1128,"AGE_21OVUK":11595}},{"type":"Feature","id":32,"geometry":{"type":"Polygon","coordinates":[[[-76.6455347648079,39.2948374291205],[-76.6454715255391,39.2938335841098],[-76.645359258337,39.2919918540454],[-76.645319663709,39.2913422652835],[-76.6451245198596,39.2883595758827],[-76.6470347199271,39.2882588531887],[-76.646965656091,39.2858595821249],[-76.6468740171835,39.2838470906647],[-76.6468202480383,39.2818241916414],[-76.6467234088396,39.2793181964039],[-76.6480140621291,39.2789609859661],[-76.6495658954211,39.2785522616772],[-76.6509988943359,39.2781985459286],[-76.6522848271112,39.2777935583313],[-76.6532690102397,39.2773261674402],[-76.6540114787144,39.276795525656],[-76.6545300156475,39.2762280570121],[-76.65497868123,39.2756082370804],[-76.6551300040961,39.2750029343791],[-76.6572281142932,39.2751549014078],[-76.6590362764096,39.2750098073368],[-76.6650995515373,39.2749709257507],[-76.6690698347665,39.274854847244],[-76.6715089803627,39.2747834678872],[-76.6749960884398,39.274806975227],[-76.6768673346553,39.2747296032748],[-76.6804526257124,39.2746476253687],[-76.6854188865589,39.2745354580244],[-76.6854435385684,39.275136740136],[-76.6854565100436,39.2756031047151],[-76.685491337946,39.2768552420742],[-76.6855189521506,39.2788298692684],[-76.6855528347823,39.28167949283],[-76.6855710011504,39.2835239235662],[-76.6856229800069,39.2854185430344],[-76.6856045769391,39.2865540052306],[-76.686459029051,39.293652303892],[-76.6813692594767,39.2938516560216],[-76.6756001573076,39.2940708562521],[-76.6727548036602,39.2941401183144],[-76.6721845510506,39.294153991801],[-76.6696620592187,39.2942235351491],[-76.6696107420234,39.2942249492051],[-76.6641717958783,39.2944550836214],[-76.6635762531358,39.2943952086266],[-76.6619412250452,39.2944923344875],[-76.6598601417804,39.2945081026382],[-76.6593422431364,39.2944875380609],[-76.6554295608236,39.2945712319991],[-76.6506329001091,39.2947119921702],[-76.6455347648079,39.2948374291205]]]},"properties":{"OBJECTID":32,"Ward_Number":"Ward20","TOTPOP":43964,"MALE":21340,"FEMALE":22624,"WHITE":43210,"BLACK":738,"NATWH":39649,"NATPAR":30728,"MIXED":8921,"FBWHITE":3561,"UNDER5":3636,"AGE_5TO14":8126,"AGE_15TO24":7873,"AGE_25TO34":7382,"AGE_35to44":6572,"AGE_45TO64":7980,"AGE_65PLUS":2358,"AGE_21OVUK":27594}},{"type":"Feature","id":33,"geometry":{"type":"Polygon","coordinates":[[[-76.5324544927991,39.2105633118611],[-76.5335449419488,39.2084261361834],[-76.5390787861663,39.2049806231755],[-76.5448643687717,39.2014326541066],[-76.5505068619669,39.197777259276],[-76.5572780073608,39.1997769480254],[-76.5645673020085,39.2019510213628],[-76.5715981305859,39.2040372525197],[-76.5796875860438,39.2064358346494],[-76.5809600742807,39.2069274446337],[-76.5812566233713,39.2076503941596],[-76.5824492900679,39.2077068847473],[-76.5837673034398,39.2081433211797],[-76.5852692470599,39.2094859594303],[-76.588971501816,39.2130885394446],[-76.5967016947162,39.2201798190754],[-76.6005915624682,39.2237612668543],[-76.6038784724083,39.2268159322553],[-76.6055834338832,39.2283792988739],[-76.6070985168172,39.22974690285],[-76.6086161291554,39.2312226464885],[-76.6105790821069,39.2331162838116],[-76.6130597580149,39.2347776943195],[-76.6167485484788,39.236635402623],[-76.6190646110279,39.2376188063667],[-76.6271009544508,39.2411957036298],[-76.6310807240388,39.2429669292252],[-76.6350616898697,39.2447809871455],[-76.6389722747012,39.2465314188102],[-76.6404087099978,39.2471592467013],[-76.6430217208083,39.2483012498938],[-76.6444139039913,39.2489264375516],[-76.6471283981108,39.250145354266],[-76.6510830506527,39.2519807417036],[-76.6547725862445,39.2537015482],[-76.659648325321,39.2558581910733],[-76.6646999093914,39.2580424761437],[-76.6697116995069,39.2601277423124],[-76.6788642069669,39.2642825343282],[-76.6832648628272,39.2662109944801],[-76.6872952033385,39.2679769315339],[-76.6890307236509,39.2687269732247],[-76.6970312135099,39.2721840806553],[-76.6995601761472,39.2733024433992],[-76.7011060540488,39.2739860185301],[-76.7110196443689,39.2782527329708],[-76.7103114894881,39.278577705406],[-76.709321459424,39.278834224753],[-76.7080530826949,39.2791674134015],[-76.7072515361331,39.2794937392125],[-76.7068246309224,39.2798629583117],[-76.7063061141421,39.28030611055],[-76.7056589871637,39.2805817666525],[-76.7041051706821,39.2807013223387],[-76.7010113240596,39.2808675806288],[-76.6969053579573,39.2810243255133],[-76.6934358628801,39.2812417012902],[-76.6928795094707,39.2812765482053],[-76.6889970451209,39.2814572379651],[-76.6869342971215,39.2816391998341],[-76.6855528347823,39.28167949283],[-76.6855189521506,39.2788298692684],[-76.685491337946,39.2768552420742],[-76.6854565100436,39.2756031047151],[-76.6854435385684,39.275136740136],[-76.6854188865589,39.2745354580244],[-76.6804526257124,39.2746476253687],[-76.6768673346553,39.2747296032748],[-76.6749960884398,39.274806975227],[-76.6715089803627,39.2747834678872],[-76.6690698347665,39.274854847244],[-76.6650995515373,39.2749709257507],[-76.6590362764096,39.2750098073368],[-76.6572281142932,39.2751549014078],[-76.6551300040961,39.2750029343791],[-76.6552647560202,39.274463909166],[-76.655251340155,39.2732885109788],[-76.6549768158767,39.2707194275145],[-76.6546315219622,39.2681735292888],[-76.6542700805339,39.2667590875609],[-76.6539749186016,39.266341845349],[-76.6535941847613,39.2659258184267],[-76.6529536069303,39.2653803955458],[-76.652155634426,39.2648150231686],[-76.6518044866222,39.2644429315322],[-76.6517396245776,39.2641111377188],[-76.6517415797353,39.2629798809366],[-76.6516527571348,39.2616281014876],[-76.6514833808391,39.2610981623021],[-76.6512748696399,39.2607240442602],[-76.6511208394495,39.2606417724478],[-76.6501858046479,39.260517684313],[-76.6494732616208,39.2605499675564],[-76.6479810741479,39.2605273645939],[-76.6464841885162,39.2606484878432],[-76.6445044271598,39.2602767485359],[-76.6432520973552,39.2598613939799],[-76.6417045344152,39.2614821772081],[-76.6388197926648,39.2608899266996],[-76.6357224710324,39.2603672151959],[-76.6354982257768,39.2599373207145],[-76.6334509467174,39.2585003807849],[-76.63235396146,39.257313452932],[-76.6272331118257,39.2562334825136],[-76.6252184011908,39.254468841587],[-76.6200577148615,39.2551296994615],[-76.6169905905159,39.2552811265577],[-76.6160566926842,39.2545555228529],[-76.6157257031241,39.2529810918209],[-76.6144192047852,39.2514783712262],[-76.6116845703002,39.2488193651853],[-76.6102798534078,39.2471190117562],[-76.6084728381847,39.2453773207454],[-76.6054645256817,39.2463022005724],[-76.6012606861004,39.2482373900629],[-76.5981191763025,39.2491282860637],[-76.5953084129716,39.2501841073517],[-76.5894207653177,39.2501798972716],[-76.5835317753552,39.2502642745286],[-76.5784122142073,39.2503297316293],[-76.5751645764605,39.2489326177383],[-76.5682954996032,39.2440238671183],[-76.5625701962747,39.2380942577641],[-76.5582089100991,39.2340715157755],[-76.5596839158113,39.2268461500929],[-76.5642882656716,39.2231391686451],[-76.5694676643305,39.2256973728037],[-76.5760875468517,39.2244211161867],[-76.5781842946866,39.2255795101814],[-76.5802786937602,39.2263591257543],[-76.5801970799165,39.2246397595696],[-76.5739425644522,39.2200943837748],[-76.5676056321847,39.2165344273929],[-76.5654253853172,39.2146178633219],[-76.5514359094366,39.2175294297272],[-76.5490345283319,39.2138111152643],[-76.5497071991754,39.2133775998469],[-76.5504944667817,39.211951909362],[-76.5501066186547,39.2108602899383],[-76.548905425914,39.2100356627025],[-76.545413926154,39.2098277514836],[-76.5369994780363,39.2104326287473],[-76.5349196347689,39.2109907756453],[-76.533463196764,39.2109392105438],[-76.5324544927991,39.2105633118611]]]},"properties":{"OBJECTID":33,"Ward_Number":"Ward25","TOTPOP":23151,"MALE":12437,"FEMALE":10714,"WHITE":21195,"BLACK":1951,"NATWH":18843,"NATPAR":14204,"MIXED":4639,"FBWHITE":2352,"UNDER5":2239,"AGE_5TO14":5238,"AGE_15TO24":4621,"AGE_25TO34":3753,"AGE_35to44":3114,"AGE_45TO64":3446,"AGE_65PLUS":732,"AGE_21OVUK":12843}},{"type":"Feature","id":34,"geometry":{"type":"Polygon","coordinates":[[[-76.530038933442,39.3552984133804],[-76.5300440311811,39.3480445075084],[-76.5301358052961,39.3399552580955],[-76.5300618380411,39.3353015193901],[-76.5301377178999,39.3340240454173],[-76.5300734832239,39.3310799786987],[-76.5301601756448,39.3295806270909],[-76.5301572601638,39.3243525354784],[-76.5301648961609,39.3224127800338],[-76.5301742519422,39.3200366344711],[-76.5301461151516,39.315834765441],[-76.5300834734144,39.3119134967746],[-76.5301538445367,39.3100112179908],[-76.5301733765136,39.2990071863686],[-76.5301875229185,39.2974963948312],[-76.5302307971337,39.2929324472304],[-76.5301556603529,39.2887686386238],[-76.5301510410088,39.2880540918104],[-76.5302584510459,39.2846942841043],[-76.530244391789,39.2800897008613],[-76.5302691171709,39.2758200511279],[-76.5302615675936,39.2727706305706],[-76.5303540654179,39.2698113791607],[-76.5303499972856,39.2692601062767],[-76.5303209666695,39.2653251259923],[-76.5303570497351,39.2610814731347],[-76.5303753960806,39.2590943819591],[-76.5303611671793,39.2576343186672],[-76.5303379276567,39.2552491348775],[-76.5305311306811,39.2445266460847],[-76.5370282428619,39.2424308448098],[-76.5403456082266,39.2459136409872],[-76.5380756134934,39.2526229595502],[-76.5358693778951,39.2564993942077],[-76.535973482644,39.2581188712355],[-76.5376691649002,39.2581320994865],[-76.5377409220352,39.2572227630599],[-76.5403677577933,39.2531283880646],[-76.5533876403461,39.2551594027751],[-76.5649986776443,39.2575469999087],[-76.5697181684246,39.2589245611278],[-76.5717144402851,39.2604235158572],[-76.5726225496381,39.2620219184233],[-76.5725743247791,39.2620228566921],[-76.5725721733383,39.262022898382],[-76.570634992325,39.2620605790796],[-76.5709033835945,39.2682998084228],[-76.5709890314207,39.2699546101084],[-76.5713592524273,39.2783610294804],[-76.5714190575149,39.279718732762],[-76.571617687562,39.2845429747452],[-76.571749085645,39.2873337353888],[-76.5719415149776,39.2924184195071],[-76.5728020148988,39.292377582419],[-76.5728018258477,39.292388816386],[-76.5727721481653,39.2941562188292],[-76.5727837372912,39.2959704014727],[-76.5727869090078,39.2969995237053],[-76.5728005097466,39.2984271181266],[-76.5727864328379,39.2992526248369],[-76.5727746967191,39.2999409118534],[-76.5727662944705,39.301411636449],[-76.5727697938546,39.3026274458595],[-76.5727606816077,39.3037782276088],[-76.5727703115194,39.307117492143],[-76.5728384450273,39.3094409571158],[-76.5728567690519,39.3123050107071],[-76.5728745994505,39.3143283044592],[-76.5728115433356,39.3169221535758],[-76.5728460278666,39.3178305007669],[-76.5728571928396,39.3206051099517],[-76.572949956606,39.3218971917884],[-76.5716288282082,39.323067754962],[-76.5698196029691,39.3245804079252],[-76.5677624775831,39.3262575114006],[-76.5654997060337,39.3281630361758],[-76.5639044585321,39.3294815221166],[-76.5622512356489,39.3307957805178],[-76.5591363000851,39.3329926440783],[-76.5553222600562,39.3355556660218],[-76.552549055479,39.3375195012876],[-76.5519908677913,39.3379111157166],[-76.5514128374365,39.3383166436925],[-76.5494921992213,39.3396944234039],[-76.5462488999091,39.3419857835659],[-76.5455487938006,39.3424906196257],[-76.543233603712,39.3441599904442],[-76.5413137185786,39.3455864995599],[-76.5397073206601,39.3469599534391],[-76.5372985009316,39.3490608109414],[-76.534901550259,39.3511164835639],[-76.5328341939753,39.3529002606934],[-76.530038933442,39.3552984133804]]]},"properties":{"OBJECTID":34,"Ward_Number":"Ward26","TOTPOP":49120,"MALE":25631,"FEMALE":23489,"WHITE":48295,"BLACK":806,"NATWH":42729,"NATPAR":30396,"MIXED":12333,"FBWHITE":5566,"UNDER5":4716,"AGE_5TO14":9861,"AGE_15TO24":9178,"AGE_25TO34":8488,"AGE_35to44":7096,"AGE_45TO64":7219,"AGE_65PLUS":2264,"AGE_21OVUK":29273}},{"type":"Feature","id":35,"geometry":{"type":"Polygon","coordinates":[[[-76.609688184824,39.340287901048],[-76.6096512577088,39.3379906835353],[-76.6095953397217,39.3351403193484],[-76.6095916789307,39.3344265587916],[-76.6095734493355,39.3308712988814],[-76.6094985424594,39.3284737973182],[-76.6094936120965,39.3255285016899],[-76.6094198060967,39.3234246061901],[-76.6093897074682,39.3225665869277],[-76.6092984963874,39.3205174559719],[-76.6092550379216,39.3194487136914],[-76.6092743524073,39.3162567405096],[-76.6092682345614,39.3147624896377],[-76.6091437298105,39.3114931463335],[-76.6090081213686,39.3097096806577],[-76.6087495407,39.3081652229737],[-76.6084448403964,39.3062771199195],[-76.608287222398,39.3055345179122],[-76.6081303385597,39.3047953545778],[-76.6097678114714,39.3047429844612],[-76.6119074734023,39.3046241892765],[-76.6124886074761,39.3058391014586],[-76.6129496470066,39.3060687645004],[-76.6138568220031,39.3062120707133],[-76.6145714556379,39.3063509557439],[-76.6152617802624,39.3062549014222],[-76.6170302552869,39.3073245725424],[-76.6179881665352,39.3081449604624],[-76.6191675633458,39.3083890838764],[-76.6197183962785,39.3090066956251],[-76.6201381398699,39.3097563976719],[-76.6202220262569,39.3104847223321],[-76.6205657592879,39.3110827415182],[-76.6205725854173,39.3110918981861],[-76.6206329487968,39.3111349211128],[-76.6214531393442,39.3117194795808],[-76.6232535620269,39.3127754144795],[-76.623275053251,39.3127984647283],[-76.6242764452267,39.3138724201908],[-76.6259008441085,39.3161575455688],[-76.6271095317966,39.3172380250031],[-76.6282452583635,39.3191400494249],[-76.6273991932241,39.3191896058211],[-76.6267511676121,39.3196395809595],[-76.6265186540976,39.3203835633562],[-76.6264962612459,39.3209859373733],[-76.6263134464481,39.3214199512785],[-76.6261015087137,39.3222618587445],[-76.6261890377309,39.3233752331354],[-76.6263575222717,39.3243196870494],[-76.6264218544823,39.3250978069187],[-76.6262666135177,39.3257231932066],[-76.6258688271696,39.3261759057517],[-76.625261169205,39.3269380157913],[-76.6252139568121,39.3276922929353],[-76.6254746778098,39.328762868218],[-76.6262160345465,39.3309154527279],[-76.6254772087095,39.331358370161],[-76.624700661251,39.3318316437275],[-76.6242619277195,39.3327924522972],[-76.6235354978395,39.333772191951],[-76.6238939784764,39.334736784322],[-76.6242264289244,39.3358210742599],[-76.6243114583437,39.3365158195906],[-76.6243685888762,39.3369826040817],[-76.6245250471247,39.3375174260087],[-76.625250769384,39.3381636293457],[-76.6258654336406,39.3389903826268],[-76.6260469104515,39.3393607669178],[-76.6259864258605,39.3402046415809],[-76.6226542853918,39.3402372867851],[-76.6162901766204,39.3402518672699],[-76.609688184824,39.340287901048]]]},"properties":{"OBJECTID":35,"Ward_Number":"Ward12","TOTPOP":37864,"MALE":17021,"FEMALE":20483,"WHITE":33323,"BLACK":4498,"NATWH":31507,"NATPAR":26747,"MIXED":4760,"FBWHITE":1816,"UNDER5":2155,"AGE_5TO14":4748,"AGE_15TO24":5952,"AGE_25TO34":6458,"AGE_35to44":6074,"AGE_45TO64":8938,"AGE_65PLUS":2889,"AGE_21OVUK":27759}},{"type":"Feature","id":36,"geometry":{"type":"Polygon","coordinates":[[[-76.6205725854173,39.3110918981861],[-76.6205657592879,39.3110827415182],[-76.6202220262569,39.3104847223321],[-76.6201381398699,39.3097563976719],[-76.6208549947788,39.3092982827253],[-76.6220362862759,39.3084073005437],[-76.6243665638286,39.3067295005419],[-76.6242689869324,39.306650749814],[-76.6271687177002,39.3048119962677],[-76.6271361845461,39.3047848942421],[-76.6287967594313,39.303469361425],[-76.629712951581,39.3027554514962],[-76.6309696705412,39.3017761649921],[-76.6319803531046,39.3010023501204],[-76.6336613393198,39.2997152696632],[-76.6345670088705,39.299021796737],[-76.6354403147337,39.3005886101872],[-76.636993561808,39.3034690877272],[-76.6382179642616,39.3057154871963],[-76.6389719310268,39.3070646020411],[-76.6401156437016,39.308107809919],[-76.6424333968657,39.3101517557195],[-76.6339169996469,39.310576549656],[-76.6268995954597,39.3108665757635],[-76.6243651428724,39.3109653594255],[-76.6236490520918,39.3109932592914],[-76.6206068827138,39.3110907986595],[-76.6206298690644,39.3111307895523],[-76.6206329487968,39.3111349211128],[-76.6205725854173,39.3110918981861]]]},"properties":{"OBJECTID":36,"Ward_Number":"Ward14","TOTPOP":22481,"MALE":10131,"FEMALE":12350,"WHITE":7071,"BLACK":15392,"NATWH":6319,"NATPAR":4760,"MIXED":1559,"FBWHITE":752,"UNDER5":1458,"AGE_5TO14":3012,"AGE_15TO24":3907,"AGE_25TO34":4459,"AGE_35to44":3806,"AGE_45TO64":4380,"AGE_65PLUS":1200,"AGE_21OVUK":15977}}]}